{"version": 0.6, "generator": "Overpass API 0.7.62.8 e802775f", "osm3s": {"timestamp_osm_base": "2025-08-26T10:02:16Z", "copyright": "The data included in this document is from www.openstreetmap.org. The data is made available under ODbL."}, "elements": [{"type": "node", "id": 632349479, "lat": 19.042572, "lon": 72.9319048, "tags": {"amenity": "bank", "name": "Central Bank"}}, {"type": "node", "id": 984980710, "lat": 19.1653161, "lon": 72.8505568, "tags": {"amenity": "bank", "atm": "yes", "brand": "HDFC Bank", "brand:wikidata": "Q631047", "brand:wikipedia": "en:HDFC Bank", "name": "HDFC Bank", "short_name": "HDFC", "website": "https://www.hdfcbank.com"}}, {"type": "node", "id": 1157166467, "lat": 19.1668344, "lon": 72.8511801, "tags": {"amenity": "bank", "atm": "yes", "name": "The Saraswat Bank"}}, {"type": "node", "id": 1157169624, "lat": 19.1636394, "lon": 72.8527984, "tags": {"amenity": "bank", "atm": "yes", "brand": "State Bank of India", "brand:wikidata": "Q1340361", "brand:wikipedia": "en:State Bank of India", "name": "State Bank of India", "short_name": "SBI", "website": "https://www.sbi.co.in"}}, {"type": "node", "id": 1157169630, "lat": 19.1640284, "lon": 72.8527627, "tags": {"amenity": "bank", "atm": "yes", "brand": "IDBI Bank", "brand:wikidata": "Q3633485", "brand:wikipedia": "en:IDBI Bank", "name": "IDBI Bank", "name:en": "IDBI Bank", "old_name": "Industrial Development Bank of India", "short_name": "IDBI", "website": "https://www.idbi.com"}}, {"type": "node", "id": 1160824876, "lat": 19.1644308, "lon": 72.8532876, "tags": {"amenity": "bank", "atm": "yes", "brand": "Bank of Baroda", "brand:wikidata": "Q2003797", "brand:wikipedia": "en:Bank of Baroda", "name": "Bank of Baroda", "name:en": "Bank of Baroda", "short_name": "BoB", "website": "http://www.bankofbaroda.com"}}, {"type": "node", "id": 1169398226, "lat": 19.1632134, "lon": 72.8512763, "tags": {"amenity": "bank", "atm": "yes", "brand": "Axis Bank", "brand:wikidata": "Q2003549", "brand:wikipedia": "en:Axis Bank", "name": "Axis Bank", "name:en": "Axis Bank", "website": "https://www.axisbank.com"}}, {"type": "node", "id": 1345329167, "lat": 19.1092917, "lon": 72.8529733, "tags": {"amenity": "bank", "name": "HDFC Bank Sahar Road", "operator": "HDFC"}}, {"type": "node", "id": 1351234040, "lat": 19.0615199, "lon": 72.9072261, "tags": {"amenity": "bank", "name": "sngc bank"}}, {"type": "node", "id": 1360134313, "lat": 19.1665882, "lon": 72.8468381, "tags": {"amenity": "bank", "atm": "yes", "brand": "Bank of Maharashtra", "brand:wikidata": "Q2004304", "brand:wikipedia": "en:Bank of Maharashtra", "name": "Bank of Maharashtra", "name:en": "Bank of Maharashtra", "website": "https://www.bankofmaharashtra.in/"}}, {"type": "node", "id": 1366956273, "lat": 19.0666595, "lon": 72.920407, "tags": {"amenity": "bank", "name": "kokan bank"}}, {"type": "node", "id": 1398701316, "lat": 19.0603483, "lon": 72.8985383, "tags": {"amenity": "bank", "atm": "yes", "name": "ICICI"}}, {"type": "node", "id": 1416471635, "lat": 19.2094472, "lon": 72.8205614, "tags": {"addr:housename": "Charkop Shivam Cop.Hsg.Soc", "addr:postcode": "400067", "amenity": "bank", "atm": "yes", "name": "New India Cop Bank"}}, {"type": "node", "id": 1416514165, "lat": 19.2126591, "lon": 72.8429872, "tags": {"amenity": "bank", "atm": "yes", "brand": "Axis Bank", "brand:wikidata": "Q2003549", "brand:wikipedia": "en:Axis Bank", "name": "Axis Bank", "name:en": "Axis Bank", "website": "https://www.axisbank.com"}}, {"type": "node", "id": 1501518125, "lat": 19.0714915, "lon": 72.8343432, "tags": {"amenity": "bank", "atm": "yes", "brand": "Citibank", "brand:wikidata": "Q857063", "brand:wikipedia": "en:Citibank", "name": "Citibank", "short_name": "Citi"}}, {"type": "node", "id": 1501518150, "lat": 19.0758592, "lon": 72.8344746, "tags": {"addr:postcode": "400054", "addr:street": "Linking Road", "amenity": "bank", "atm": "yes", "brand": "ICICI Bank", "brand:wikidata": "Q1653258", "name": "ICICI Bank", "name:en": "ICICI Bank", "short_name": "ICICI", "website": "https://www.icicibank.com"}}, {"type": "node", "id": 1501518157, "lat": 19.0752179, "lon": 72.8337907, "tags": {"addr:postcode": "400052", "amenity": "bank", "atm": "yes", "brand": "IDBI Bank", "brand:wikidata": "Q3633485", "brand:wikipedia": "en:IDBI Bank", "name": "IDBI Bank", "name:en": "IDBI Bank", "old_name": "Industrial Development Bank of India", "short_name": "IDBI", "website": "https://www.idbi.com"}}, {"type": "node", "id": 1514451614, "lat": 19.0744557, "lon": 72.8260154, "tags": {"amenity": "bank", "atm": "yes", "brand": "Indian Overseas Bank", "brand:wikidata": "Q2003611", "brand:wikipedia": "en:Indian Overseas Bank", "name": "Indian Overseas Bank", "name:en": "Indian Overseas Bank", "short_name": "IOB", "website": "https://www.iob.in"}}, {"type": "node", "id": 1573917606, "lat": 19.1031465, "lon": 72.8467877, "tags": {"addr:housename": "Pardhi House", "addr:postcode": "400057", "addr:street": "Hanuman Road,M.g. Road", "amenity": "bank", "atm": "yes", "brand": "Bank of India", "brand:wikidata": "Q2004439", "brand:wikipedia": "en:Bank of India", "name": "Bank of India", "name:en": "Bank of India", "short_name": "BoI", "website": "https://www.bankofindia.co.in/"}}, {"type": "node", "id": 1575306449, "lat": 19.1030478, "lon": 72.8473563, "tags": {"addr:housename": "Saraswati Niwas", "addr:postcode": "400057", "addr:street": "Hanuman Road", "amenity": "bank", "atm": "yes", "name": "Cosmos Bank"}}, {"type": "node", "id": 1576633589, "lat": 19.103182, "lon": 72.8484426, "tags": {"addr:housename": "Prabhat Apt.", "addr:postcode": "400057", "addr:street": "Hanuman Road", "amenity": "bank", "name": "Pen Urban Bank"}}, {"type": "node", "id": 1577704949, "lat": 19.1034694, "lon": 72.8485851, "tags": {"addr:housename": "Gloddiola", "addr:postcode": "400057", "addr:street": "Hanuman Road", "amenity": "bank", "name": "ING Vaisya"}}, {"type": "node", "id": 1577946978, "lat": 19.1036259, "lon": 72.8498185, "tags": {"addr:housename": "Shree Kunj Premises", "addr:postcode": "400057", "addr:street": "Hanuman Road", "amenity": "bank", "atm": "yes", "name": "Janata Sahakari Bank"}}, {"type": "node", "id": 1577992597, "lat": 19.1036737, "lon": 72.8503066, "tags": {"addr:housename": "Deshastha Hrigvedi Brahman Sangh", "addr:postcode": "400057", "addr:street": "Hanuman Road", "amenity": "bank", "brand": "Punjab National Bank", "brand:wikidata": "Q2743499", "brand:wikipedia": "en:Punjab National Bank", "name": "Punjab National Bank", "name:en": "Punjab National Bank", "short_name": "PNB", "website": "https://www.pnbindia.in"}}, {"type": "node", "id": 1579242356, "lat": 19.1038462, "lon": 72.8514734, "tags": {"addr:housename": "Kadamgiri Complex Co.Op.HSG.Soc.", "addr:postcode": "400057", "addr:street": "Hanuman Road", "amenity": "bank", "atm": "yes", "brand": "ICICI Bank", "brand:wikidata": "Q1653258", "brand:wikipedia": "en:ICICI Bank", "name": "ICICI Bank", "name:en": "ICICI Bank", "short_name": "ICICI", "website": "https://www.icicibank.com"}}, {"type": "node", "id": 1579243979, "lat": 19.1038664, "lon": 72.8517658, "tags": {"addr:housename": "Kadamgiri Complex Co.Op.HSG.Soc.", "addr:postcode": "400057", "addr:street": "Hanuman Road", "amenity": "bank", "atm": "yes", "brand": "Corporation Bank", "brand:wikidata": "Q2003387", "brand:wikipedia": "en:Corporation Bank", "name": "Corporation Bank", "name:en": "Corporation Bank", "website": "https://corpbank.com/"}}, {"type": "node", "id": 1579246326, "lat": 19.1038384, "lon": 72.8513421, "tags": {"addr:housename": "Kadamgiri Complex Co.Op.HSG.Soc.", "addr:postcode": "400057", "addr:street": "Hanuman Road", "amenity": "bank", "atm": "yes", "brand": "Karnataka Bank", "brand:wikidata": "Q2042632", "brand:wikipedia": "en:Karnataka Bank", "name": "Karnataka Bank"}}, {"type": "node", "id": 1579287602, "lat": 19.1038364, "lon": 72.8522498, "tags": {"addr:housename": "Moreshwar", "addr:postcode": "400057", "addr:street": "Hanuman Road", "amenity": "bank", "brand": "Kotak Mahindra Bank", "brand:wikidata": "Q2040404", "brand:wikipedia": "en:Kotak Mahindra Bank", "name": "Kotak Mahindra Bank", "name:en": "Kotak Mahindra Bank", "website": "http://www.kotak.com"}}, {"type": "node", "id": 1651421868, "lat": 19.0596131, "lon": 72.9001315, "tags": {"alt_name": "SBI", "amenity": "bank", "atm": "yes", "brand": "State Bank of India", "brand:wikidata": "Q1340361", "brand:wikipedia": "en:State Bank of India", "name": "State Bank of India", "short_name": "SBI"}}, {"type": "node", "id": 1803672128, "lat": 19.1080126, "lon": 72.8497841, "tags": {"addr:housename": "Union Bank of India", "addr:postcode": "400057", "addr:street": "Tejpal Scheme Road 3", "amenity": "bank", "atm": "yes", "brand": "Union Bank of India", "brand:wikidata": "Q2004078", "brand:wikipedia": "en:Union Bank of India", "name": "Union Bank of India", "name:en": "Union Bank of India", "short_name": "UBI", "source": "Swati Sanghavi", "website": "https://www.unionbankofindia.co.in/"}}, {"type": "node", "id": 1855812193, "lat": 19.1251505, "lon": 72.9162941, "tags": {"amenity": "bank", "atm": "yes", "brand": "State Bank of India", "brand:wikidata": "Q1340361", "brand:wikipedia": "en:State Bank of India", "name": "State Bank of India", "short_name": "SBI"}}, {"type": "node", "id": 1855812196, "lat": 19.1241767, "lon": 72.9168507, "tags": {"amenity": "bank", "atm": "yes", "brand": "South Indian Bank", "brand:wikidata": "Q2044973", "name": "South Indian Bank"}}, {"type": "node", "id": 2068377754, "lat": 19.0613796, "lon": 72.8294018, "tags": {"amenity": "bank", "atm": "yes", "brand": "HDFC Bank", "brand:wikidata": "Q631047", "brand:wikipedia": "en:HDFC Bank", "building": "commercial", "name": "HDFC Bank", "short_name": "HDFC", "website": "https://www.hdfcbank.com"}}, {"type": "node", "id": 2071265014, "lat": 19.1403763, "lon": 72.8312872, "tags": {"addr:housename": "Raheja Classique", "addr:housenumber": "Kotak Mahindra Bank", "addr:postcode": "400053", "addr:street": "New Link Road, Andheri West", "amenity": "bank", "atm": "yes", "brand": "Kotak Mahindra Bank", "brand:wikidata": "Q2040404", "brand:wikipedia": "en:Kotak Mahindra Bank", "name": "Kotak Mahindra Bank", "name:en": "Kotak Mahindra Bank", "source": "personal field trip. I work here.", "website": "http://www.kotak.com"}}, {"type": "node", "id": 2071265558, "lat": 19.140617, "lon": 72.8312817, "tags": {"addr:housename": "Raheja Classique", "addr:housenumber": "State bank of India", "addr:postcode": "400053", "addr:street": "New Link Road, Andheri West", "amenity": "bank", "atm": "yes", "brand": "State Bank of India", "brand:wikidata": "Q1340361", "brand:wikipedia": "en:State Bank of India", "name": "State Bank of India", "short_name": "SBI", "source": "personal field trip, I work in this building."}}, {"type": "node", "id": 2071438253, "lat": 19.1370795, "lon": 72.8111328, "tags": {"addr:postcode": "400061", "amenity": "bank", "atm": "yes", "brand": "ICICI", "brand:wikidata": "Q1653258", "name": "ICICI Bank", "name:en": "ICICI Bank", "short_name": "ICICI", "source": "field trip. I live closeby.", "website": "https://www.icicibank.com", "wikidata": "Q1653258", "wikipedia": "en:ICICI Bank"}}, {"type": "node", "id": 2074174740, "lat": 19.1395609, "lon": 72.8320275, "tags": {"addr:housename": "Gopi Chambers", "addr:housenumber": "1st Floor", "addr:postcode": "400053", "addr:street": "New Link Road, Andheri West", "amenity": "bank", "atm": "yes", "brand": "IDBI Bank", "brand:wikidata": "Q3633485", "brand:wikipedia": "en:IDBI Bank", "name": "IDBI Bank", "name:en": "IDBI Bank", "old_name": "Industrial Development Bank of India", "short_name": "IDBI", "source": "field trip", "website": "https://www.idbi.com"}}, {"type": "node", "id": 2125166461, "lat": 19.1468347, "lon": 72.829096, "tags": {"amenity": "bank", "atm": "yes", "brand": "Standard Chartered", "brand:wikidata": "Q548278", "name": "Standard Chartered"}}, {"type": "node", "id": 2125237550, "lat": 19.1394357, "lon": 72.8253328, "tags": {"amenity": "bank", "atm": "yes", "brand": "HDFC Bank", "brand:wikidata": "Q631047", "brand:wikipedia": "en:HDFC Bank", "name": "HDFC Bank", "short_name": "HDFC", "website": "https://www.hdfcbank.com"}}, {"type": "node", "id": 2125326736, "lat": 19.1251136, "lon": 72.8224506, "tags": {"amenity": "bank", "brand": "United Bank of India", "brand:wikidata": "Q2003237", "brand:wikipedia": "en:United Bank of India", "name": "United Bank of India", "name:en": "United Bank of India", "short_name": "UBI", "website": "http://www.unitedbankofindia.com"}}, {"type": "node", "id": 2125326742, "lat": 19.1256889, "lon": 72.8221112, "tags": {"amenity": "bank", "atm": "yes", "brand": "IDBI", "brand:wikidata": "Q3633485", "brand:wikipedia": "en:IDBI Bank", "name": "IDBI Bank", "name:en": "IDBI Bank", "old_name": "Industrial Development Bank of India", "short_name": "IDBI", "website": "https://www.idbi.com"}}, {"type": "node", "id": 2131202830, "lat": 19.1214881, "lon": 72.8256117, "tags": {"amenity": "bank", "atm": "yes", "branch": "Versova", "brand": "HDFC", "brand:wikidata": "Q631047", "brand:wikipedia": "en:HDFC Bank", "name": "HDFC Bank", "short_name": "HDFC", "website": "https://www.hdfcbank.com"}}, {"type": "node", "id": 2148660912, "lat": 19.132851, "lon": 72.8255181, "tags": {"amenity": "bank", "brand": "Yes Bank", "brand:wikidata": "Q2040394", "brand:wikipedia": "en:Yes Bank", "name": "Yes Bank", "name:en": "YES Bank", "website": "https://www.yesbank.in"}}, {"type": "node", "id": 2173557095, "lat": 19.0596816, "lon": 72.8292949, "tags": {"addr:city": "Mumbai", "addr:housename": "Makar Mahal", "addr:postcode": "400050", "addr:street": "Perry Road", "amenity": "bank", "atm": "yes", "brand": "Kotak Mahindra Bank", "brand:wikidata": "Q2040404", "name": "Kotak Mahindra Bank", "operator": "Kotak Mahindra"}}, {"type": "node", "id": 2173585904, "lat": 19.0603513, "lon": 72.8294526, "tags": {"addr:city": "Mumbai", "addr:postcode": "400050", "addr:street": "Dr. BR Ambedkar Road", "addr:suburb": "Bandra West", "amenity": "bank", "atm": "yes", "brand": "HSBC", "brand:wikidata": "Q190464", "name": "HSBC"}}, {"type": "node", "id": 2181459990, "lat": 19.1401975, "lon": 72.8268395, "tags": {"amenity": "bank", "atm": "yes", "brand": "Bank of Baroda", "brand:wikidata": "Q2003797", "brand:wikipedia": "en:Bank of Baroda", "name": "Bank of Baroda", "name:en": "Bank of Baroda", "short_name": "BoB", "website": "http://www.bankofbaroda.com"}}, {"type": "node", "id": 2186668925, "lat": 19.1327516, "lon": 72.8273474, "tags": {"amenity": "bank", "name": "Shamrao Viththal Cooperative Bank"}}, {"type": "node", "id": 2186688543, "lat": 19.1295612, "lon": 72.8234823, "tags": {"amenity": "bank", "atm": "yes", "brand": "State Bank of India", "brand:wikidata": "Q1340361", "brand:wikipedia": "en:State Bank of India", "name": "State Bank of India", "short_name": "SBI"}}, {"type": "node", "id": 2188840265, "lat": 19.1068579, "lon": 72.8671624, "tags": {"amenity": "bank", "name": "Jankalyan Sahkari Bank Ltd"}}, {"type": "node", "id": 2296930090, "lat": 19.1695747, "lon": 72.9572656, "tags": {"amenity": "bank", "brand": "IDBI", "brand:wikidata": "Q3633485", "brand:wikipedia": "en:IDBI Bank", "name": "IDBI Bank", "name:en": "IDBI Bank", "old_name": "Industrial Development Bank of India", "operator": "IDBI Bank", "short_name": "IDBI", "website": "https://www.idbi.com"}}, {"type": "node", "id": 2296930091, "lat": 19.1701837, "lon": 72.955753, "tags": {"amenity": "bank", "brand:wikidata": "Q1340361", "brand:wikipedia": "en:State Bank of India", "name": "State Bank of India, Mulund E", "operator": "State Bank of India", "short_name": "SBI"}}, {"type": "node", "id": 2313088123, "lat": 19.1352428, "lon": 72.9005482, "tags": {"addr:city": "NITIE PO, Powai, Mumbai", "addr:housename": "State Bank of India", "addr:postcode": "400087", "addr:street": "Vihar Lake Marg", "amenity": "bank", "atm": "yes", "brand:wikidata": "Q1340361", "brand:wikipedia": "en:State Bank of India", "name": "State Bank of India", "note": "Branch Code: 09055", "phone": "022-28575099", "short_name": "SBI"}}, {"type": "node", "id": 2319384840, "lat": 19.0584544, "lon": 72.9002908, "tags": {"amenity": "bank", "atm": "yes", "brand": "HDFC", "brand:wikidata": "Q631047", "brand:wikipedia": "en:HDFC Bank", "name": "HDFC Bank", "short_name": "HDFC", "website": "https://www.hdfcbank.com"}}, {"type": "node", "id": 2366680453, "lat": 19.1653937, "lon": 72.8311691, "tags": {"amenity": "bank", "building": "apartments", "name": "oroental Bank Of Commerce"}}, {"type": "node", "id": 2368204850, "lat": 19.1123097, "lon": 72.829182, "tags": {"amenity": "bank", "brand": "ICICI", "brand:wikidata": "Q1653258", "name": "ICICI Bank", "name:en": "ICICI Bank", "short_name": "ICICI", "website": "https://www.icicibank.com", "wikidata": "Q1653258", "wikipedia": "en:ICICI Bank"}}, {"type": "node", "id": 2397247529, "lat": 19.1745705, "lon": 72.8471442, "tags": {"alt_name": "RBL Bank Limited", "amenity": "bank", "brand": "RBL Bank", "brand:wikidata": "Q13120398", "brand:wikipedia": "en:RBL Bank", "name": "RBL Bank", "name:en": "RBL Bank", "old_name": "Ratnakar Bank Limited", "short_name": "RBL", "website": "https://www.rblbank.com"}}, {"type": "node", "id": 2414363400, "lat": 19.1283801, "lon": 72.8207416, "tags": {"addr:city": "Mumbai", "addr:housename": "New Siddharth CHS Ltd", "addr:unit": "Ground Floor", "amenity": "bank", "brand": "Axis Bank", "brand:wikidata": "Q2003549", "brand:wikipedia": "en:Axis Bank", "name": "Axis Bank", "name:en": "Axis Bank", "website": "https://www.axisbank.com"}}, {"type": "node", "id": 2610566388, "lat": 19.0545517, "lon": 72.8271477, "tags": {"amenity": "bank", "brand": "Bank of Baroda", "brand:wikidata": "Q2003797", "brand:wikipedia": "en:Bank of Baroda", "name": "Bank of Baroda"}}, {"type": "node", "id": 2680353849, "lat": 19.0708008, "lon": 72.8342617, "tags": {"amenity": "bank", "atm": "yes", "brand": "Axis Bank", "brand:wikidata": "Q2003549", "brand:wikipedia": "en:Axis Bank", "name": "Axis Bank", "name:en": "Axis Bank", "website": "https://www.axisbank.com"}}, {"type": "node", "id": 2822421687, "lat": 19.2126317, "lon": 72.8745388, "tags": {"addr:postcode": "400101", "amenity": "bank", "atm": "yes", "brand": "Axis Bank", "brand:wikidata": "Q2003549", "brand:wikipedia": "en:Axis Bank", "name": "Axis Bank", "name:en": "Axis Bank", "operator": "AXIS Bank", "website": "https://www.axisbank.com"}}, {"type": "node", "id": 2841960937, "lat": 19.0517536, "lon": 72.8243436}, {"type": "node", "id": 2841960938, "lat": 19.0517401, "lon": 72.8244593}, {"type": "node", "id": 2841960939, "lat": 19.0517274, "lon": 72.8244968}, {"type": "node", "id": 2841960940, "lat": 19.0517122, "lon": 72.8245183}, {"type": "node", "id": 2841960941, "lat": 19.0516881, "lon": 72.8245304}, {"type": "node", "id": 2841960942, "lat": 19.0516463, "lon": 72.8245371}, {"type": "node", "id": 2841960943, "lat": 19.0515837, "lon": 72.8245286}, {"type": "node", "id": 2841960944, "lat": 19.0516045, "lon": 72.8243829}, {"type": "node", "id": 2841960945, "lat": 19.0516209, "lon": 72.8243829}, {"type": "node", "id": 2841960946, "lat": 19.0516285, "lon": 72.8243252}, {"type": "node", "id": 2851477524, "lat": 19.0485821, "lon": 72.8260458, "tags": {"addr:street": "St John Baptist Road", "amenity": "bank", "atm": "yes", "brand": "Federal Bank", "brand:wikidata": "Q2044983", "brand:wikipedia": "en:Federal Bank", "check_date": "2023-10-20", "name": "Federal Bank", "name:en": "Federal Bank", "website": "https://www.federalbank.co.in"}}, {"type": "node", "id": 2851478746, "lat": 19.0526188, "lon": 72.8242758, "tags": {"amenity": "bank", "atm": "yes", "brand": "Union Bank of India", "brand:wikidata": "Q2004078", "name": "Union Bank of India", "name:en": "Union Bank of India", "website": "https://www.unionbankofindia.co.in/"}}, {"type": "node", "id": 2851478747, "lat": 19.0528346, "lon": 72.8243008, "tags": {"amenity": "bank", "atm": "yes", "brand": "HDFC Bank", "brand:wikidata": "Q631047", "brand:wikipedia": "en:HDFC Bank", "name": "HDFC Bank", "short_name": "HDFC", "website": "https://www.hdfcbank.com"}}, {"type": "node", "id": 2930724985, "lat": 19.0639515, "lon": 72.9264967, "tags": {"addr:housenumber": "1215", "addr:street": "Road No. 9", "amenity": "bank", "atm": "yes", "brand:wikidata": "Q3595747", "brand:wikipedia": "en:Dena Bank", "name": "Dena Bank", "name:en": "Dena Bank", "website": "http://www.denabank.com"}}, {"type": "node", "id": 3125292401, "lat": 19.0280238, "lon": 72.8976141, "tags": {"addr:city": "Mumbai", "addr:postcode": "400074", "addr:street": "Bhikaji Damaji Patil Marg (Corridor Road)", "amenity": "bank", "atm": "yes", "brand:wikidata": "Q3595747", "brand:wikipedia": "en:Dena Bank", "name": "Dena Bank", "name:en": "Dena Bank", "opening_hours": "8:15-14:15", "website": "http://www.denabank.com"}}, {"type": "node", "id": 3195574836, "lat": 19.0716568, "lon": 72.8341148, "tags": {"amenity": "bank", "brand": "Citibank", "brand:wikidata": "Q857063", "brand:wikipedia": "en:Citibank", "name": "Citibank", "short_name": "Citi"}}, {"type": "node", "id": 3195592887, "lat": 19.1111725, "lon": 72.8297487, "tags": {"amenity": "bank", "brand": "Union Bank of India", "brand:wikidata": "Q2004078", "brand:wikipedia": "en:Union Bank of India", "name": "Union Bank of India", "name:en": "Union Bank of India", "short_name": "UBI", "website": "https://www.unionbankofindia.co.in/"}}, {"type": "node", "id": 3201090477, "lat": 19.1143522, "lon": 72.8306408, "tags": {"amenity": "bank", "atm": "yes", "brand:wikidata": "Q2003387", "brand:wikipedia": "en:Corporation Bank", "name": "Corporation Bank", "name:en": "Corporation Bank", "website": "https://corpbank.com/"}}, {"type": "node", "id": 3202765969, "lat": 19.0605001, "lon": 72.9190945, "tags": {"addr:city": "mumbai", "addr:housenumber": "4", "addr:postcode": "400043", "addr:street": "P.L. Lokhande Marg", "amenity": "bank", "atm": "yes", "opening_hours": "0:00-24:00", "operator": "all"}}, {"type": "node", "id": 3202766974, "lat": 19.0611372, "lon": 72.9091625, "tags": {"addr:city": "Mumbai", "addr:housenumber": "45", "addr:postcode": "400089", "addr:street": "P.L. Lokhande Marg", "amenity": "bank", "atm": "yes", "name": "bank of narayana guru", "operator": "Hemant"}}, {"type": "node", "id": 3202949536, "lat": 19.0631512, "lon": 72.9288398, "tags": {"addr:city": "mumbai", "addr:postcode": "400043", "addr:street": "Plot No.2", "amenity": "bank", "atm": "yes", "name": "lena bank", "operator": "safiya"}}, {"type": "node", "id": 3204520074, "lat": 19.0951201, "lon": 72.9137982, "tags": {"amenity": "bank", "brand:wikidata": "Q2003476", "brand:wikipedia": "en:Andhra Bank", "name": "Andhra Bank", "name:en": "Andhra Bank", "website": "https://www.andhrabank.in"}}, {"type": "node", "id": 3210487879, "lat": 19.0842612, "lon": 72.9182739, "tags": {"amenity": "bank"}}, {"type": "node", "id": 3213765399, "lat": 19.0608964, "lon": 72.92471, "tags": {"addr:city": "mumbai", "addr:housenumber": "room no:10,line no:p,plot no:12", "addr:postcode": "400043", "addr:street": "Jeejabai Bhosle Marg", "amenity": "bank", "atm": "yes", "brand": "State Bank of India", "brand:wikidata": "Q1340361", "brand:wikipedia": "en:State Bank of India", "name": "state Bank of India", "opening_hours": "0:00-24:00", "short_name": "SBI"}}, {"type": "node", "id": 3214396698, "lat": 19.0518251, "lon": 72.9011295, "tags": {"addr:city": "Mumbai", "addr:housenumber": "Plot No 1, Hotel Bahri Residency", "addr:postcode": "400071", "addr:street": "V N Purav Marg", "amenity": "bank", "atm": "no", "brand:wikidata": "Q1340361", "email": "sbi.16228@sbi.co.in", "fax": "+91 22 25214460", "name": "State Bank of India Specialised NRI Branch", "opening_hours": "Mo-Fr 10:00-16:00;Sa 10:00-13:00", "operator": "State Bank of India", "phone": "+91 22 25214446", "website": "https://www.sbi.co.in/"}}, {"type": "node", "id": 3215227340, "lat": 19.068094, "lon": 72.9062425, "tags": {"addr:city": "Mumbai", "addr:city:ur": "\u0645\u0645\u0628\u0626\u06cc", "addr:postcode": "400089", "amenity": "bank", "atm": "yes", "brand": "Indian Overseas Bank", "brand:ur": "\u0627\u0646\u0688\u06cc\u0646 \u0627\u0648\u0648\u0631\u0633\u06cc\u0632 \u0628\u06cc\u0646\u06a9", "brand:wikidata": "Q2003611", "contact:fax": "+91 22 25254944", "email": "iob0487@iob.in", "name": "Indian Overseas Bank", "name:ur": "\u0627\u0646\u0688\u06cc\u0646 \u0627\u0648\u0648\u0631\u0633\u06cc\u0632 \u0628\u06cc\u0646\u06a9", "opening_hours": "Mo-Fr 08:00-14:00; Sa 08:00-11:00", "operator": "Indian Overseas Bank", "operator:ur": "\u0627\u0646\u0688\u06cc\u0646 \u0627\u0648\u0648\u0631\u0633\u06cc\u0632 \u0628\u06cc\u0646\u06a9", "phone": "+91 22 25258093", "short_name": "IOB", "short_name:ur": "\u0622\u0626\u06cc \u0627\u0648 \u0628\u06cc", "website": "https://www.iob.in"}}, {"type": "node", "id": 3218583001, "lat": 19.0649816, "lon": 72.9195092, "tags": {"amenity": "bank", "name": "kocan bank"}}, {"type": "node", "id": 3218618160, "lat": 19.0644541, "lon": 72.9192119, "tags": {"addr:city": "mumbai", "addr:postcode": "400009", "amenity": "bank", "atm": "yes", "description": "ho;4/A devi galli Baburao Bobade Marg,Lokhand Bazaar", "fixme": "incorrect addr:housenumber information moved to description for now", "name": "THE HINDUSTHAN CO-OP.BANK LTD MUMBAI", "operator": "9;00am to 5;00pm and sater day is half day so timing 9;30am to 1;00 pm"}}, {"type": "node", "id": 3218626830, "lat": 19.0643299, "lon": 72.9193476, "tags": {"amenity": "bank", "fixme": "please verify \"bank\"", "name": "FRB EASY BANKING", "operator": "PREAM SHARMA COMMUNICATION"}}, {"type": "node", "id": 3218920533, "lat": 19.0621202, "lon": 72.9011599, "tags": {"amenity": "bank", "brand:wikidata": "Q2003789", "brand:wikipedia": "en:Indian Bank", "name": "Indian Bank", "name:en": "Indian Bank", "website": "https://www.indianbank.in/"}}, {"type": "node", "id": 3224623804, "lat": 19.1720301, "lon": 72.9587213, "tags": {"addr:city": "Mulund (East)", "addr:postcode": "400081", "addr:street": "Mahatma Phule Marg", "amenity": "bank", "atm": "yes", "brand": "Bank of Baroda", "brand:wikidata": "Q2003797", "brand:wikipedia": "en:Dena Bank", "name": "Bank of Baroda", "name:en": "Dena Bank", "website": "http://www.denabank.com"}}, {"type": "node", "id": 3224692236, "lat": 19.1719172, "lon": 72.9594585, "tags": {"addr:city": "Mulund (East)", "addr:postcode": "400081", "addr:street": "Mahatma Phule Marg", "amenity": "bank", "atm": "yes", "brand": "Axis Bank", "brand:wikidata": "Q2003549", "brand:wikipedia": "en:Axis Bank", "name": "Axis Bank", "name:en": "Axis Bank", "website": "https://www.axisbank.com"}}, {"type": "node", "id": 3235946455, "lat": 19.1746833, "lon": 72.9534865, "tags": {"addr:city": "Mulund (West)", "addr:postcode": "400080", "addr:street": "Mahatma Gandhi Road", "amenity": "bank", "atm": "yes", "brand:wikidata": "Q3595747", "brand:wikipedia": "en:Dena Bank", "name": "Dena Bank", "name:en": "Dena Bank", "website": "http://www.denabank.com"}}, {"type": "node", "id": 3235952462, "lat": 19.1753828, "lon": 72.9544214, "tags": {"addr:city": "Mulund (West)", "addr:street": "Subhash Chandra Bose Road", "amenity": "bank", "atm": "yes", "name": "Cyndicate Bank"}}, {"type": "node", "id": 3235952463, "lat": 19.1753632, "lon": 72.9544804, "tags": {"addr:city": "Mulund (West)", "addr:postcode": "400080", "addr:street": "Subhash Chandra Bose Road", "amenity": "bank", "atm": "yes", "name": "Sarswat Bank"}}, {"type": "node", "id": 3242698781, "lat": 19.1149202, "lon": 72.8501392, "tags": {"amenity": "bank", "brand": "Kotak Mahindra Bank", "brand:wikidata": "Q2040404", "brand:wikipedia": "en:Kotak Mahindra Bank", "name": "Kotak Mahindra Bank", "name:en": "Kotak Mahindra Bank", "website": "http://www.kotak.com"}}, {"type": "node", "id": 3293516345, "lat": 19.1404836, "lon": 72.8318195, "tags": {"amenity": "bank", "brand": "Yes Bank", "brand:wikidata": "Q2040394", "brand:wikipedia": "en:Yes Bank", "name": "Yes Bank", "name:en": "YES Bank", "website": "https://www.yesbank.in"}}, {"type": "node", "id": 3305729037, "lat": 19.1407938, "lon": 72.8319183, "tags": {"amenity": "bank", "atm": "yes", "name": "New India Co-Operative Bank Ltd"}}, {"type": "node", "id": 3484977398, "lat": 19.2092394, "lon": 72.8745359, "tags": {"addr:city": "Mumbai", "addr:street": "Behind Vasant Sagar Complex", "amenity": "bank", "atm": "yes", "name": "Saraswat Bank"}}, {"type": "node", "id": 3512350293, "lat": 19.0596854, "lon": 72.8297667, "tags": {"addr:city": "Mumbai", "addr:postcode": "400050", "addr:street": "Turner Road (Gurunanak Marg)", "amenity": "bank", "brand": "Axis Bank", "brand:wikidata": "Q2003549", "brand:wikipedia": "en:Axis Bank", "name": "Axis Bank", "operator": "Axis Bank", "website": "https://www.axisbank.com"}}, {"type": "node", "id": 3518548898, "lat": 19.1135753, "lon": 72.9034373, "tags": {"addr:city": "Mumbai", "amenity": "bank", "name": "Apna Janta Sahakari Bank"}}, {"type": "node", "id": 3529548084, "lat": 19.0460083, "lon": 72.9098852, "tags": {"addr:postcode": "400088", "addr:street": "Sion Trombay Road, Deonar", "amenity": "bank", "atm": "yes", "brand": "State Bank of India", "brand:wikidata": "Q1340361", "brand:wikipedia": "en:State Bank of India", "check_date:opening_hours": "2023-06-15", "drive_through": "no", "name": "State Bank of India", "opening_hours": "09:30-15:30", "phone": "+912225580005", "short_name": "SBI", "website": "https://www.sbi.co.in"}}, {"type": "node", "id": 3529572268, "lat": 19.0607666, "lon": 72.8967036, "tags": {"amenity": "bank", "name": "vijya bank"}}, {"type": "node", "id": 3532111661, "lat": 19.0627501, "lon": 72.8804604, "tags": {"amenity": "bank", "atm": "yes", "brand": "State Bank of India", "brand:wikidata": "Q1340361", "brand:wikipedia": "en:State Bank of India", "name": "State Bank of India", "short_name": "SBI"}}, {"type": "node", "id": 3532122516, "lat": 19.0637716, "lon": 72.8842194, "tags": {"amenity": "bank", "atm": "yes", "brand": "Allahabad Bank", "brand:wikidata": "Q2018840", "brand:wikipedia": "en:Allahabad Bank", "name": "Allahabad Bank", "name:en": "Allahabad Bank", "website": "https://www.allahabadbank.in"}}, {"type": "node", "id": 3532124715, "lat": 19.0692808, "lon": 72.8781281, "tags": {"amenity": "bank", "name": "noor communication"}}, {"type": "node", "id": 3534557308, "lat": 19.0532017, "lon": 72.8982348, "tags": {"amenity": "bank", "brand:wikidata": "Q3595747", "brand:wikipedia": "en:Dena Bank", "name": "Dena Bank", "name:en": "Dena Bank", "website": "http://www.denabank.com"}}, {"type": "node", "id": 3534574621, "lat": 19.0584653, "lon": 72.8987155, "tags": {"amenity": "bank", "atm": "yes", "brand": "ING", "brand:wikidata": "Q645708", "name": "ING"}}, {"type": "node", "id": 3554043837, "lat": 19.1445069, "lon": 72.9342532, "tags": {"addr:city": "mumbai", "addr:housenumber": "Dena bank", "addr:postcode": "400078", "addr:street": "Lal Bahadur Shastri Marg", "amenity": "bank", "branch": "unknown", "brand:wikidata": "Q3595747", "brand:wikipedia": "en:Dena Bank", "name": "Dena Bank", "name:en": "Dena Bank", "opening_hours": "10:00-15:30", "operator": "unknown", "website": "http://www.denabank.com"}}, {"type": "node", "id": 3587223727, "lat": 19.1065343, "lon": 72.9220859, "tags": {"amenity": "bank", "brand": "ICICI", "brand:wikidata": "Q1653258", "name": "ICICI Bank", "name:en": "ICICI Bank", "short_name": "ICICI", "website": "https://www.icicibank.com", "wikidata": "Q1653258", "wikipedia": "en:ICICI Bank"}}, {"type": "node", "id": 3587806367, "lat": 19.1727095, "lon": 72.9539345}, {"type": "node", "id": 3587806368, "lat": 19.1727568, "lon": 72.9538829}, {"type": "node", "id": 3587806369, "lat": 19.1728176, "lon": 72.9538166}, {"type": "node", "id": 3587806370, "lat": 19.1728447, "lon": 72.9539733}, {"type": "node", "id": 3587806371, "lat": 19.1728575, "lon": 72.9537732}, {"type": "node", "id": 3587806372, "lat": 19.1728763, "lon": 72.9541062}, {"type": "node", "id": 3587806373, "lat": 19.1729055, "lon": 72.953907}, {"type": "node", "id": 3587806374, "lat": 19.1729112, "lon": 72.9538805}, {"type": "node", "id": 3587806375, "lat": 19.1729357, "lon": 72.9538537}, {"type": "node", "id": 3587806377, "lat": 19.1729998, "lon": 72.9539717}, {"type": "node", "id": 3589383596, "lat": 19.0605916, "lon": 72.8612894}, {"type": "node", "id": 3589383597, "lat": 19.0606144, "lon": 72.8611081}, {"type": "node", "id": 3589383598, "lat": 19.0606203, "lon": 72.861509}, {"type": "node", "id": 3589383599, "lat": 19.0606509, "lon": 72.861645}, {"type": "node", "id": 3589383600, "lat": 19.0606654, "lon": 72.8609324}, {"type": "node", "id": 3589383601, "lat": 19.0607693, "lon": 72.860733}, {"type": "node", "id": 3589383602, "lat": 19.0607699, "lon": 72.8614398}, {"type": "node", "id": 3589383603, "lat": 19.0608294, "lon": 72.8609491}, {"type": "node", "id": 3589383604, "lat": 19.0608309, "lon": 72.8611967}, {"type": "node", "id": 3589478400, "lat": 19.066325, "lon": 72.8478245}, {"type": "node", "id": 3589669910, "lat": 19.0380415, "lon": 72.9258577}, {"type": "node", "id": 3589669912, "lat": 19.0380512, "lon": 72.92559}, {"type": "node", "id": 3589669953, "lat": 19.0381439, "lon": 72.9258618}, {"type": "node", "id": 3589669960, "lat": 19.0381536, "lon": 72.9255942}, {"type": "node", "id": 3591774109, "lat": 19.0452498, "lon": 72.9116112}, {"type": "node", "id": 3591774110, "lat": 19.0452697, "lon": 72.9119379}, {"type": "node", "id": 3591774119, "lat": 19.0454731, "lon": 72.9115873}, {"type": "node", "id": 3591774120, "lat": 19.0454899, "lon": 72.9119098}, {"type": "node", "id": 3592040175, "lat": 19.0704414, "lon": 72.8795975}, {"type": "node", "id": 3592040178, "lat": 19.0704712, "lon": 72.8795119}, {"type": "node", "id": 3592040189, "lat": 19.0705957, "lon": 72.8796577}, {"type": "node", "id": 3592040191, "lat": 19.0706256, "lon": 72.8795722}, {"type": "node", "id": 3602055066, "lat": 19.1001424, "lon": 72.8953411, "tags": {"amenity": "bank", "atm": "yes", "brand:wikidata": "Q2003797", "brand:wikipedia": "en:Bank of Baroda", "name": "Bank of Baroda", "name:en": "Bank of Baroda", "short_name": "BoB", "website": "http://www.bankofbaroda.com"}}, {"type": "node", "id": 3602161433, "lat": 19.110703, "lon": 72.9253513, "tags": {"amenity": "bank", "name": "mutual fund"}}, {"type": "node", "id": 3602161434, "lat": 19.1105658, "lon": 72.9252936, "tags": {"amenity": "bank", "brand": "HDFC", "brand:wikidata": "Q631047", "brand:wikipedia": "en:HDFC Bank", "name": "hdfc bank", "short_name": "HDFC", "website": "https://www.hdfcbank.com"}}, {"type": "node", "id": 3602843667, "lat": 19.1173138, "lon": 72.9366231, "tags": {"addr:street": "Eastern Expressway", "amenity": "bank", "name": "Jankalyan Sahakari bank"}}, {"type": "node", "id": 3602868335, "lat": 19.120212, "lon": 72.9386605, "tags": {"amenity": "bank", "brand": "State Bank of India", "brand:wikidata": "Q1340361", "brand:wikipedia": "en:State Bank of India", "name": "State Bank of India", "short_name": "SBI"}}, {"type": "node", "id": 3617291227, "lat": 19.0598152, "lon": 72.8608651}, {"type": "node", "id": 3617291228, "lat": 19.0598263, "lon": 72.8609896}, {"type": "node", "id": 3617291229, "lat": 19.0598435, "lon": 72.8612467}, {"type": "node", "id": 3617291230, "lat": 19.0598439, "lon": 72.8611869}, {"type": "node", "id": 3617291231, "lat": 19.059848, "lon": 72.8608126}, {"type": "node", "id": 3617291236, "lat": 19.0598785, "lon": 72.8612802}, {"type": "node", "id": 3617291237, "lat": 19.0598829, "lon": 72.8609839}, {"type": "node", "id": 3617291238, "lat": 19.0598902, "lon": 72.8607453}, {"type": "node", "id": 3617291239, "lat": 19.0598907, "lon": 72.8608049}, {"type": "node", "id": 3617291242, "lat": 19.0599005, "lon": 72.8611812}, {"type": "node", "id": 3617291243, "lat": 19.0599232, "lon": 72.8612889}, {"type": "node", "id": 3617291246, "lat": 19.0599708, "lon": 72.8612608}, {"type": "node", "id": 3617291247, "lat": 19.0600071, "lon": 72.8613172}, {"type": "node", "id": 3617291254, "lat": 19.0601048, "lon": 72.8608201}, {"type": "node", "id": 3617291257, "lat": 19.0601335, "lon": 72.8613013}, {"type": "node", "id": 3617291258, "lat": 19.0601847, "lon": 72.8612395}, {"type": "node", "id": 3617291261, "lat": 19.060231, "lon": 72.8612608}, {"type": "node", "id": 3617291266, "lat": 19.0602755, "lon": 72.8612637}, {"type": "node", "id": 3617291267, "lat": 19.0602774, "lon": 72.8609586}, {"type": "node", "id": 3617291268, "lat": 19.060294, "lon": 72.8611451}, {"type": "node", "id": 3617291271, "lat": 19.0603126, "lon": 72.860852}, {"type": "node", "id": 3617291272, "lat": 19.0603169, "lon": 72.8612479}, {"type": "node", "id": 3617291273, "lat": 19.0603404, "lon": 72.8609524}, {"type": "node", "id": 3617291275, "lat": 19.0603509, "lon": 72.8611849}, {"type": "node", "id": 3617291276, "lat": 19.0603526, "lon": 72.8612066}, {"type": "node", "id": 3617291278, "lat": 19.060367, "lon": 72.8611426}, {"type": "node", "id": 3617291279, "lat": 19.0603691, "lon": 72.861182}, {"type": "node", "id": 3632361087, "lat": 19.0808842, "lon": 72.8522968, "tags": {"amenity": "bank", "brand": "Axis Bank", "brand:wikidata": "Q2003549", "brand:wikipedia": "en:Axis Bank", "name": "Axis Bank"}}, {"type": "node", "id": 3637094599, "lat": 19.1081289, "lon": 72.8647093}, {"type": "node", "id": 3637094607, "lat": 19.1081514, "lon": 72.8646615}, {"type": "node", "id": 3637094624, "lat": 19.1082067, "lon": 72.8646907}, {"type": "node", "id": 3637094629, "lat": 19.1082246, "lon": 72.8646525}, {"type": "node", "id": 3637094633, "lat": 19.1082466, "lon": 72.8647713}, {"type": "node", "id": 3637094636, "lat": 19.1082772, "lon": 72.8647064}, {"type": "node", "id": 3637094639, "lat": 19.1082915, "lon": 72.8647514}, {"type": "node", "id": 3637094642, "lat": 19.1083056, "lon": 72.8647214}, {"type": "node", "id": 3637094651, "lat": 19.108357, "lon": 72.8647859}, {"type": "node", "id": 3637094654, "lat": 19.1083647, "lon": 72.8647695}, {"type": "node", "id": 3637094661, "lat": 19.1083884, "lon": 72.864782}, {"type": "node", "id": 3637094664, "lat": 19.1084047, "lon": 72.8647474}, {"type": "node", "id": 3945482603, "lat": 19.1347673, "lon": 72.8140757, "tags": {"amenity": "bank", "brand:wikidata": "Q5266685", "brand:wikipedia": "en:DCB Bank", "name": "DCB Bank", "name:en": "DCB Bank", "website": "https://www.dcbbank.com"}}, {"type": "node", "id": 3951524189, "lat": 19.1013189, "lon": 72.8395752, "tags": {"amenity": "bank", "atm": "yes", "brand": "Bank of India", "brand:wikidata": "Q2004439", "brand:wikipedia": "en:Bank of India", "name": "Bank of India", "name:en": "Bank of India", "short_name": "BoI", "website": "https://www.bankofindia.co.in/"}}, {"type": "node", "id": 3951538081, "lat": 19.0864743, "lon": 72.8379271, "tags": {"amenity": "bank", "atm": "yes", "brand": "HDFC Bank", "brand:wikidata": "Q631047", "brand:wikipedia": "en:HDFC Bank", "name": "HDFC Bank", "short_name": "HDFC", "website": "https://www.hdfcbank.com"}}, {"type": "node", "id": 3951540038, "lat": 19.0847091, "lon": 72.8378884, "tags": {"amenity": "bank", "brand": "ICICI Bank", "brand:wikidata": "Q1653258", "brand:wikipedia": "en:ICICI Bank", "name": "ICICI Bank", "name:en": "ICICI Bank", "short_name": "ICICI", "website": "https://www.icicibank.com"}}, {"type": "node", "id": 3951540700, "lat": 19.0839979, "lon": 72.8377844, "tags": {"amenity": "bank", "atm": "yes", "brand": "Standard Chartered", "brand:wikidata": "Q548278", "brand:wikipedia": "en:Standard Chartered", "name": "Standard Chartered"}}, {"type": "node", "id": 3951814358, "lat": 19.1736871, "lon": 72.954918, "tags": {"addr:city": "Mulund (West)", "addr:street": "Mahatma Gandhi Road", "amenity": "bank", "atm": "yes", "name": "Thane Bharat  Sahkari Bank"}}, {"type": "node", "id": 3979085054, "lat": 19.113826, "lon": 72.8422843, "tags": {"amenity": "bank", "atm": "yes", "brand": "ICICI", "brand:wikidata": "Q1653258", "name": "ICICI Bank", "name:en": "ICICI Bank", "short_name": "ICICI", "website": "https://www.icicibank.com", "wikidata": "Q1653258", "wikipedia": "en:ICICI Bank"}}, {"type": "node", "id": 3979245839, "lat": 19.1213038, "lon": 72.8258542, "tags": {"amenity": "bank", "atm": "yes", "brand": "State Bank of India", "brand:wikidata": "Q1340361", "brand:wikipedia": "en:State Bank of India", "name": "State Bank of India", "short_name": "SBI"}}, {"type": "node", "id": 3980133296, "lat": 19.1300795, "lon": 72.8188091, "tags": {"amenity": "bank", "brand": "Bank of Maharashtra", "brand:wikidata": "Q2004304", "brand:wikipedia": "en:Bank of Maharashtra", "name": "Bank of Maharashtra", "name:en": "Bank of Maharashtra", "website": "https://www.bankofmaharashtra.in/"}}, {"type": "node", "id": 3984000685, "lat": 19.1274776, "lon": 72.821481, "tags": {"amenity": "bank", "name": "Greater Bank"}}, {"type": "node", "id": 4014544589, "lat": 19.0605321, "lon": 72.8296766, "tags": {"amenity": "bank", "brand": "Bank of Baroda", "brand:wikidata": "Q2003797", "brand:wikipedia": "en:Bank of Baroda", "name": "Bank of Baroda", "name:en": "Bank of Baroda", "short_name": "BoB", "website": "http://www.bankofbaroda.com"}}, {"type": "node", "id": 4137656290, "lat": 19.1947225, "lon": 72.8393956, "tags": {"amenity": "bank", "atm": "yes", "brand": "Union Bank of India", "brand:wikidata": "Q2004078", "brand:wikipedia": "en:Union Bank of India", "name": "Union Bank of India", "name:en": "Union Bank of India", "short_name": "UBI", "website": "https://www.unionbankofindia.co.in/"}}, {"type": "node", "id": 4137663922, "lat": 19.1949548, "lon": 72.8388756, "tags": {"amenity": "bank", "brand": "Punjab National Bank", "brand:wikidata": "Q2743499", "name": "Punjab National Bank", "name:en": "Punjab National Bank", "short_name": "PNB", "website": "https://www.pnbindia.in", "wikimedia_commons": "Category:Punjab National Bank"}}, {"type": "node", "id": 4137664042, "lat": 19.1959914, "lon": 72.8389973, "tags": {"amenity": "bank", "atm": "yes", "brand": "Axis Bank", "brand:wikidata": "Q2003549", "brand:wikipedia": "en:Axis Bank", "name": "Axis Bank", "name:en": "Axis Bank", "website": "https://www.axisbank.com"}}, {"type": "node", "id": 4258412111, "lat": 19.1100307, "lon": 72.9253412, "tags": {"amenity": "bank", "name": "union bank"}}, {"type": "node", "id": 4303141075, "lat": 19.0605673, "lon": 72.8345604, "tags": {"addr:city": "Bandra, Mumbai", "addr:postcode": "400050", "addr:street": "RK Patkar Marg (Waterfield Road)", "amenity": "bank", "atm": "yes", "brand": "ICICI Bank", "brand:wikidata": "Q1653258", "brand:wikipedia": "en:ICICI Bank", "drive_through": "no", "name": "ICICI Bank", "name:en": "ICICI Bank", "short_name": "ICICI", "website": "https://www.icicibank.com"}}, {"type": "node", "id": 4303151062, "lat": 19.0606848, "lon": 72.8342493, "tags": {"addr:city": "Bandra, Mumbai", "addr:postcode": "400050", "addr:street": "RK Patkar Marg (Waterfield Road)", "amenity": "bank", "atm": "yes", "brand": "Allahabad Bank", "brand:wikidata": "Q2018840", "brand:wikipedia": "en:Allahabad Bank", "drive_through": "no", "name": "Allahabad Bank", "name:en": "Allahabad Bank", "website": "https://www.allahabadbank.in"}}, {"type": "node", "id": 4303174219, "lat": 19.0596845, "lon": 72.8364242, "tags": {"addr:city": "Bandra, Mumbai", "addr:postcode": "400050", "addr:street": "Turner Road (Gurunanak Marg)", "amenity": "bank", "atm": "yes", "brand": "Bank of Baroda", "brand:wikidata": "Q2003797", "brand:wikipedia": "en:Bank of Baroda", "name": "Bank of Baroda", "name:en": "Bank of Baroda", "short_name": "BoB", "website": "http://www.bankofbaroda.com"}}, {"type": "node", "id": 4303174323, "lat": 19.0591089, "lon": 72.8359267, "tags": {"addr:city": "Bandra, Mumbai", "addr:postcode": "400050", "addr:street": "Turner Road (Gurunanak Marg)", "amenity": "bank", "atm": "yes", "brand": "State Bank of India", "brand:wikidata": "Q1340361", "brand:wikipedia": "en:State Bank of India", "drive_through": "no", "name": "State Bank of India", "short_name": "SBI"}}, {"type": "node", "id": 4309831195, "lat": 19.0569252, "lon": 72.8293916, "tags": {"addr:city": "Mumbai", "addr:postcode": "400050", "addr:street": "Manuel Gonsalves Road", "amenity": "bank", "brand": "Central Bank of India", "brand:wikidata": "Q2007090", "brand:wikipedia": "en:Central Bank of India", "name": "Central Bank of India", "website": "https://www.centralbankofindia.co.in"}}, {"type": "node", "id": 4312866252, "lat": 19.0586883, "lon": 72.8342693, "tags": {"amenity": "bank", "atm": "yes", "brand": "Standard Chartered", "brand:wikidata": "Q548278", "brand:wikipedia": "en:Standard Chartered", "name": "Standard Chartered"}}, {"type": "node", "id": 4326460089, "lat": 19.0980082, "lon": 72.8880315, "tags": {"amenity": "bank", "brand:wikidata": "Q2743499", "name": "Punjab National Bank", "name:en": "Punjab National Bank", "operator": "Punjab National Bank", "short_name": "PNB", "website": "https://www.pnbindia.in", "wikidata": "Q2743499", "wikimedia_commons": "Category:Punjab National Bank", "wikipedia": "en:Punjab National Bank"}}, {"type": "node", "id": 4326907789, "lat": 19.1072479, "lon": 72.8818341, "tags": {"amenity": "bank", "brand:wikidata": "Q2004304", "brand:wikipedia": "en:Bank of Maharashtra", "name": "Bank of Maharashtra", "name:en": "Bank of Maharashtra", "website": "https://www.bankofmaharashtra.in/"}}, {"type": "node", "id": 4343231498, "lat": 19.2102745, "lon": 72.8363683, "tags": {"addr:city": "Mumbai", "addr:postcode": "400067", "addr:street": "Datta Mandir Road", "amenity": "bank", "atm": "yes", "brand": "Bank of Baroda", "brand:wikidata": "Q2003797", "brand:wikipedia": "en:Bank of Baroda", "drive_through": "no", "name": "Bank of Baroda", "name:en": "Bank of Baroda", "short_name": "BoB", "website": "http://www.bankofbaroda.com"}}, {"type": "node", "id": 4350842789, "lat": 19.0555538, "lon": 72.831638, "tags": {"addr:city": "Bandra, Mumbai", "addr:postcode": "400050", "addr:street": "Ramdas Naik Road", "amenity": "bank", "atm": "yes", "brand": "Union Bank of India", "brand:wikidata": "Q2004078", "brand:wikipedia": "en:Union Bank of India", "name": "Union Bank of India", "name:en": "Union Bank of India", "short_name": "UBI", "website": "https://www.unionbankofindia.co.in/"}}, {"type": "node", "id": 4385124118, "lat": 19.0594484, "lon": 72.8352337, "tags": {"addr:city": "Bandra, Mumbai", "addr:postcode": "400050", "addr:street": "Turner Road (Gurunanak Marg)", "amenity": "bank", "atm": "yes", "brand": "Union Bank of India", "brand:wikidata": "Q2004078", "name": "Union Bank of India"}}, {"type": "node", "id": 4396299490, "lat": 19.1072595, "lon": 72.8640931, "tags": {"amenity": "bank", "name:en": "Greater Bombay Bank"}}, {"type": "node", "id": 4412722495, "lat": 19.0621137, "lon": 72.8641566, "tags": {"addr:housenumber": "27", "addr:postcode": "400051", "amenity": "bank", "name:en": "Kotak Mahindra 27 BKC"}}, {"type": "node", "id": 4484203195, "lat": 19.1182272, "lon": 72.9286681, "tags": {"amenity": "bank"}}, {"type": "node", "id": 4498884752, "lat": 19.2009533, "lon": 72.8213427, "tags": {"addr:city": "Mumbai", "addr:postcode": "400095", "amenity": "bank", "atm": "yes", "brand": "State Bank of India", "brand:wikidata": "Q1340361", "brand:wikipedia": "en:State Bank of India", "drive_through": "no", "name": "State Bank of India", "short_name": "SBI"}}, {"type": "node", "id": 4590507805, "lat": 19.0595684, "lon": 72.8327302, "tags": {"addr:city": "Bandra, Mumbai", "addr:postcode": "400050", "addr:street": "Gurunanak Marg", "amenity": "bank", "atm": "yes", "brand": "Yes Bank", "brand:wikidata": "Q2040394", "brand:wikipedia": "en:Yes Bank", "name": "Yes Bank", "name:en": "YES Bank", "website": "https://www.yesbank.in"}}, {"type": "node", "id": 4590912465, "lat": 19.1264842, "lon": 72.8205629, "tags": {"amenity": "bank", "atm": "yes", "branch": "Versova Link Road", "brand": "ICICI Bank", "brand:wikidata": "Q1653258", "name": "ICICI Bank", "name:en": "ICICI Bank", "short_name": "ICICI", "website": "https://www.icicibank.com"}}, {"type": "node", "id": 4621599021, "lat": 19.2546099, "lon": 72.864465, "tags": {"addr:street": "Chatrapati Shivaji Road", "amenity": "bank", "name:en": "HDFC Bank"}}, {"type": "node", "id": 4624928647, "lat": 19.2100644, "lon": 72.8743666, "tags": {"amenity": "bank", "brand": "ING", "brand:wikidata": "Q645708", "name": "ING", "note": "Name to be checked, added on basis of an osm note."}}, {"type": "node", "id": 4650900015, "lat": 19.1958489, "lon": 72.8390181, "tags": {"amenity": "bank", "atm": "no", "name": "Model Co-operative Bank"}}, {"type": "node", "id": 4650922200, "lat": 19.193399, "lon": 72.8397241, "tags": {"amenity": "bank", "brand:wikidata": "Q3595747", "brand:wikipedia": "en:Dena Bank", "name": "Dena Bank", "name:en": "Dena Bank", "website": "http://www.denabank.com"}}, {"type": "node", "id": 4683305101, "lat": 19.107509, "lon": 72.8611948, "tags": {"amenity": "bank", "atm": "yes", "name": "Axis Bank ATM"}}, {"type": "node", "id": 4683432441, "lat": 19.1072531, "lon": 72.8643018, "tags": {"addr:street": "JB Nagar Road", "amenity": "bank", "atm": "yes", "name": "Bassein Catholic Bank"}}, {"type": "node", "id": 4683432701, "lat": 19.1070614, "lon": 72.863941, "tags": {"addr:street": "JB Nagar Road", "amenity": "bank", "atm": "yes", "brand": "Canara Bank", "brand:pa": "\u0a15\u0a47\u0a28\u0a30\u0a3e \u0a2c\u0a48\u0a02\u0a15", "brand:ur": "\u06a9\u06cc\u0646\u0631\u0627 \u0628\u06cc\u0646\u06a9", "brand:wikidata": "Q2003777", "brand:wikipedia": "en:Canara Bank", "brand:wikipedia:pa": "\u0a15\u0a47\u0a28\u0a30\u0a3e \u0a2c\u0a48\u0a02\u0a15", "name": "Canara Bank", "name:pa": "\u0a15\u0a47\u0a28\u0a30\u0a3e \u0a2c\u0a48\u0a02\u0a15", "name:ur": "\u06a9\u06cc\u0646\u0631\u0627 \u0628\u06cc\u0646\u06a9", "website": "https://www.canarabank.com/"}}, {"type": "node", "id": 4683441200, "lat": 19.1072757, "lon": 72.864003, "tags": {"addr:street": "JB Nagar Road", "amenity": "bank", "atm": "yes", "name": "Greater Bombay Co-operative Bank"}}, {"type": "node", "id": 4683441296, "lat": 19.1074162, "lon": 72.8639437, "tags": {"addr:street": "JB Nagar Road", "amenity": "bank", "atm": "yes", "brand": "Punjab National Bank", "brand:wikidata": "Q2743499", "brand:wikipedia": "en:Punjab National Bank", "name": "Punjab National Bank", "name:en": "Punjab National Bank", "short_name": "PNB", "website": "https://www.pnbindia.in"}}, {"type": "node", "id": 4713077091, "lat": 19.1606673, "lon": 72.8507723, "tags": {"addr:street": "Sonawala Road", "amenity": "bank", "brand": "Indian Bank", "brand:wikidata": "Q2003789", "name": "Indian Bank", "name:en": "Indian bank"}}, {"type": "node", "id": 4874452534, "lat": 19.2042481, "lon": 72.8493806, "tags": {"addr:street": "Mahatma Gandhi Road", "amenity": "bank", "atm": "yes", "brand:wikidata": "Q3595747", "brand:wikipedia": "en:Dena Bank", "name": "Dena Bank", "name:en": "Dena Bank", "website": "http://www.denabank.com"}}, {"type": "node", "id": 4909995120, "lat": 19.2027664, "lon": 72.8413985, "tags": {"amenity": "bank", "atm": "yes", "brand": "Indian Bank", "brand:wikidata": "Q2003789", "brand:wikipedia": "en:Indian Bank", "name": "Indian Bank", "name:en": "Indian Bank", "website": "https://www.indianbank.in/"}}, {"type": "node", "id": 5083628481, "lat": 19.2043168, "lon": 72.8415847, "tags": {"amenity": "bank", "atm": "yes", "name": "Union Bank"}}, {"type": "node", "id": 5158410257, "lat": 19.2028218, "lon": 72.8392504, "tags": {"addr:city": "Kandivali (West)", "addr:district": "mumbai", "addr:postcode": "400067", "addr:street": "Irani Wadi Road No 3", "air_conditioning": "yes", "amenity": "bank", "atm": "yes", "brand": "State Bank of India", "brand:wikidata": "Q1340361", "drive_through": "no", "name": "State Bank of India", "opening_hours": "Mo-Fr 09:00-18:00", "operator": "SBI", "short_name": "SBI"}}, {"type": "node", "id": 5185427021, "lat": 19.0681994, "lon": 72.8334568, "tags": {"addr:housenumber": "400050", "addr:street": "Maharashtra", "amenity": "bank", "name:en": "Punjab bank"}}, {"type": "node", "id": 5219090121, "lat": 19.1874618, "lon": 72.8431282, "tags": {"addr:street": "Mamledar wadi Road", "amenity": "bank", "brand": "Bank of Maharashtra", "brand:wikidata": "Q2004304", "name": "Bank of Maharashtra", "name:en": "Bank of Maharashtra"}}, {"type": "node", "id": 5236295949, "lat": 19.1989353, "lon": 72.8481913, "tags": {"amenity": "bank", "atm": "yes", "brand": "HDFC Bank", "brand:wikidata": "Q631047", "name": "HDFC Bank", "short_name": "HDFC"}}, {"type": "node", "id": 5236295950, "lat": 19.1989959, "lon": 72.8482082, "tags": {"amenity": "bank", "atm": "yes", "brand": "Kotak Mahindra Bank", "brand:wikidata": "Q2040404", "name": "Kotak Mahindra Bank"}}, {"type": "node", "id": 5236297491, "lat": 19.198706, "lon": 72.8486557, "tags": {"amenity": "bank", "atm": "yes", "brand": "Bank of Baroda", "brand:wikidata": "Q2003797", "name": "Bank of Baroda"}}, {"type": "node", "id": 5236297827, "lat": 19.1990695, "lon": 72.8482288, "tags": {"amenity": "bank", "atm": "yes", "brand": "State Bank of India", "brand:wikidata": "Q1340361", "name": "State Bank of India", "operator": "State Bank of India", "short_name": "SBI"}}, {"type": "node", "id": 5236304708, "lat": 19.2011225, "lon": 72.847674, "tags": {"amenity": "bank", "brand": "ICICI Bank", "brand:wikidata": "Q1653258", "name": "ICICI Bank", "short_name": "ICICI"}}, {"type": "node", "id": 5238415227, "lat": 19.0513608, "lon": 72.8250811, "tags": {"addr:city": "Mumbai", "addr:postcode": "400050", "addr:street": "St Sebastian Road", "amenity": "bank", "brand": "Union Bank of India", "brand:wikidata": "Q2004078", "name": "Union Bank of India"}}, {"type": "node", "id": 5256641024, "lat": 19.0482585, "lon": 72.8260689, "tags": {"addr:city": "Mumbai", "addr:postcode": "400050", "addr:street": "St John Baptist Road", "amenity": "bank", "atm": "yes", "brand": "Bank of India", "brand:wikidata": "Q2004439", "brand:wikipedia": "en:Bank of India", "name": "Bank of India", "operator": "Bank of India", "website": "https://www.bankofindia.co.in/"}}, {"type": "node", "id": 5268302360, "lat": 19.2100034, "lon": 72.8691082, "tags": {"amenity": "bank", "atm": "yes", "brand": "ICICI Bank", "brand:wikidata": "Q1653258", "drive_through": "yes", "name": "ICICI Bank", "short_name": "ICICI"}}, {"type": "node", "id": 5268302361, "lat": 19.2098116, "lon": 72.8690249, "tags": {"amenity": "bank", "atm": "yes", "brand": "HDFC Bank", "brand:wikidata": "Q631047", "name": "HDFC Bank", "short_name": "HDFC"}}, {"type": "node", "id": 5268302362, "lat": 19.2098946, "lon": 72.8690406, "tags": {"amenity": "bank", "atm": "yes", "brand": "Yes Bank", "brand:wikidata": "Q2040394", "name": "Yes Bank"}}, {"type": "node", "id": 5268302363, "lat": 19.2097668, "lon": 72.8690164, "tags": {"amenity": "bank", "atm": "yes", "brand": "Bank of Maharashtra", "brand:wikidata": "Q2004304", "name": "Bank of Maharashtra"}}, {"type": "node", "id": 5268302364, "lat": 19.2098667, "lon": 72.8690353, "tags": {"amenity": "bank", "atm": "yes", "brand": "Canara Bank", "brand:en": "Canara Bank", "brand:hi": "\u0915\u0947\u0928\u0930\u093e \u092c\u0948\u0902\u0915", "brand:kn": "\u0c95\u0cc6\u0ca8\u0cb0\u0cbe \u0cac\u0ccd\u0caf\u0cbe\u0c82\u0c95\u0ccd", "brand:pa": "\u0a15\u0a47\u0a28\u0a30\u0a3e \u0a2c\u0a48\u0a02\u0a15", "brand:pnb": "\u06a9\u06cc\u0646\u0631\u0627 \u0628\u06cc\u0646\u06a9", "brand:ur": "\u06a9\u06cc\u0646\u0631\u0627 \u0628\u06cc\u0646\u06a9", "brand:wikidata": "Q2003777", "brand:wikipedia": "en:Canara Bank", "brand:wikipedia:pa": "\u0a15\u0a47\u0a28\u0a30\u0a3e \u0a2c\u0a48\u0a02\u0a15", "name": "Canara Bank", "name:en": "Canara Bank", "name:hi": "\u0915\u0947\u0928\u0930\u093e \u092c\u0948\u0902\u0915", "name:kn": "\u0c95\u0cc6\u0ca8\u0cb0\u0cbe \u0cac\u0ccd\u0caf\u0cbe\u0c82\u0c95\u0ccd", "name:pa": "\u0a15\u0a47\u0a28\u0a30\u0a3e \u0a2c\u0a48\u0a02\u0a15", "name:pnb": "\u06a9\u06cc\u0646\u0631\u0627 \u0628\u06cc\u0646\u06a9", "name:ur": "\u06a9\u06cc\u0646\u0631\u0627 \u0628\u06cc\u0646\u06a9"}}, {"type": "node", "id": 5268302365, "lat": 19.2113199, "lon": 72.8710472, "tags": {"amenity": "bank", "atm": "yes", "brand": "State Bank of India", "brand:wikidata": "Q1340361", "name": "State Bank of India", "opening_hours": "9:00 - 15:00", "short_name": "SBI"}}, {"type": "node", "id": 5291105323, "lat": 19.0724588, "lon": 72.8372917, "tags": {"amenity": "bank", "name:en": "Deutsche Bank Mumbai"}}, {"type": "node", "id": 5346702817, "lat": 19.0615913, "lon": 72.8296689, "tags": {"addr:city": "Mumbai", "addr:postcode": "400050", "addr:street": "29th Road", "addr:suburb": "Bandra", "amenity": "bank", "atm": "yes", "brand": "ICICI Bank", "brand:wikidata": "Q1653258", "brand:wikipedia": "en:ICICI Bank", "drive_through": "no", "name": "ICICI Bank", "short_name": "ICICI"}}, {"type": "node", "id": 5506320971, "lat": 19.068694, "lon": 72.8682768, "tags": {"amenity": "bank", "name": "FAB (First Abu Dhabi Bank)"}}, {"type": "node", "id": 5506321249, "lat": 19.0687576, "lon": 72.8683636, "tags": {"amenity": "bank", "brand": "Bandhan Bank", "brand:wikidata": "Q19882235", "name": "Bandhan Bank"}}, {"type": "node", "id": 5506321254, "lat": 19.0653042, "lon": 72.859304, "tags": {"amenity": "bank", "atm": "yes", "brand": "Allahabad Bank", "brand:wikidata": "Q2018840", "name": "Allahabad Bank", "opening_hours": "Mo-Sa 10:00-16:00"}}, {"type": "node", "id": 5592598716, "lat": 19.1998766, "lon": 72.8484045, "tags": {"amenity": "bank", "name": "Cosmos Bank"}}, {"type": "node", "id": 5609861204, "lat": 19.2120177, "lon": 72.8717234, "tags": {"amenity": "bank", "brand": "IDBI Bank", "brand:wikidata": "Q3633485", "name": "IDBI Bank", "short_name": "IDBI"}}, {"type": "node", "id": 5609870264, "lat": 19.2104247, "lon": 72.8733634, "tags": {"amenity": "bank", "brand": "Kotak Mahindra Bank", "brand:wikidata": "Q2040404", "name": "Kotak Mahindra Bank"}}, {"type": "node", "id": 5641941123, "lat": 19.1725889, "lon": 72.9516832, "tags": {"amenity": "bank", "name:en": "Karur Vysya Bank"}}, {"type": "node", "id": 5641941124, "lat": 19.1718092, "lon": 72.9525227, "tags": {"amenity": "bank", "name:en": "SVC Bank"}}, {"type": "node", "id": 5641941324, "lat": 19.1717768, "lon": 72.9523598, "tags": {"amenity": "bank", "name:en": "Canara Bank"}}, {"type": "node", "id": 5646143121, "lat": 19.1717386, "lon": 72.9582143, "tags": {"amenity": "bank", "name:en": "New India Co. Op.  Bank"}}, {"type": "node", "id": 5674545821, "lat": 19.0688867, "lon": 72.8690268, "tags": {"amenity": "bank", "name:en": "FirstRand Bank, India branch"}}, {"type": "node", "id": 5867113900, "lat": 19.060363, "lon": 72.8521472, "tags": {"amenity": "bank", "brand": "ICICI Bank", "brand:wikidata": "Q1653258", "brand:wikipedia": "en:ICICI Bank", "name": "ICICI Bank", "short_name": "ICICI"}}, {"type": "node", "id": 5890154781, "lat": 19.0841424, "lon": 72.8366779, "tags": {"amenity": "bank", "brand": "State Bank of India", "brand:wikidata": "Q1340361", "brand:wikipedia": "en:State Bank of India", "name": "State Bank of India", "short_name": "SBI"}}, {"type": "node", "id": 6052290387, "lat": 19.1612083, "lon": 72.9441507, "tags": {"amenity": "bank", "name:en": "SBI"}}, {"type": "node", "id": 6052842885, "lat": 19.1611776, "lon": 72.9441944, "tags": {"amenity": "bank", "name:en": "NKGSB Bank"}}, {"type": "node", "id": 6066150031, "lat": 19.2105537, "lon": 72.8696053, "tags": {"addr:postcode": "400101", "amenity": "bank", "atm": "yes", "drive_through": "yes", "name": "SVC Bank"}}, {"type": "node", "id": 6127387623, "lat": 19.2057495, "lon": 72.8443961, "tags": {"amenity": "bank", "brand": "Corporation Bank", "brand:wikidata": "Q2003387", "name": "Corporation Bank"}}, {"type": "node", "id": 6230994886, "lat": 19.1156865, "lon": 72.9090124, "tags": {"amenity": "bank", "name:en": "Mahindra Bank"}}, {"type": "node", "id": 6230994889, "lat": 19.1158669, "lon": 72.9093109, "tags": {"amenity": "bank", "brand": "ICICI Bank", "brand:wikidata": "Q1653258", "name": "ICICI Bank", "name:en": "ICICI Bank", "short_name": "ICICI"}}, {"type": "node", "id": 6230994986, "lat": 19.1161546, "lon": 72.9089981, "tags": {"amenity": "bank", "brand": "Axis Bank", "brand:wikidata": "Q2003549", "name": "Axis Bank", "name:en": "Axis Bank"}}, {"type": "node", "id": 6233043685, "lat": 19.1162542, "lon": 72.9091364, "tags": {"amenity": "bank", "brand": "State Bank of India", "brand:wikidata": "Q1340361", "name": "State Bank of India", "name:en": "State Bank of India", "short_name": "SBI"}}, {"type": "node", "id": 6233043688, "lat": 19.1161368, "lon": 72.9096699, "tags": {"amenity": "bank", "name:en": "HSBC Bank"}}, {"type": "node", "id": 6233043787, "lat": 19.1162935, "lon": 72.9099178, "tags": {"amenity": "bank", "brand": "HDFC Bank", "brand:wikidata": "Q631047", "name": "HDFC Bank", "name:en": "HDFC Bank", "short_name": "HDFC"}}, {"type": "node", "id": 6488201822, "lat": 19.0555171, "lon": 72.9003251, "tags": {"amenity": "bank", "brand": "IDFC First Bank", "brand:wikidata": "Q22031467", "name": "IDFC First Bank"}}, {"type": "node", "id": 6795476295, "lat": 19.115198, "lon": 72.9077358, "tags": {"amenity": "bank", "brand": "Jana Small Finance Bank", "brand:wikidata": "Q65122274", "name": "Jana Small Finance Bank", "name:en": "Jana Small Finance Bank", "opening_hours": "Mo-Su 10:00-18:00"}}, {"type": "node", "id": 6795659086, "lat": 19.1158291, "lon": 72.909414, "tags": {"amenity": "bank", "name:en": "Credit Suisse"}}, {"type": "node", "id": 6796939953, "lat": 19.11559, "lon": 72.9088465, "tags": {"amenity": "bank", "brand": "Kotak Mahindra Bank", "brand:wikidata": "Q2040404", "brand:wikipedia": "en:Kotak Mahindra Bank", "name": "Kotak Mahindra Bank"}}, {"type": "node", "id": 6799614988, "lat": 19.1255622, "lon": 72.9176276, "tags": {"addr:housenumber": "94/C", "addr:postcode": "400076", "addr:street": "Apna Bazar", "amenity": "bank", "name:en": "UCO Bank (Supreme Infrastructure Ltd.)"}}, {"type": "node", "id": 6799616186, "lat": 19.1253133, "lon": 72.9178937, "tags": {"addr:postcode": "400076", "addr:street": "Apna bazar", "amenity": "bank", "brand": "ICICI Bank", "brand:wikidata": "Q1653258", "name": "ICICI Bank", "name:en": "ICICI", "short_name": "ICICI"}}, {"type": "node", "id": 6802053484, "lat": 19.1176428, "lon": 72.9076284, "tags": {"amenity": "bank", "brand": "Andhra Bank", "brand:wikidata": "Q2003476", "name": "Andhra Bank"}}, {"type": "node", "id": 6802059739, "lat": 19.1728559, "lon": 72.9526989, "tags": {"amenity": "bank", "name": "State Bank Of India"}}, {"type": "node", "id": 6914500985, "lat": 19.1182894, "lon": 72.90506, "tags": {"amenity": "bank", "name:en": "ICICI Prudential mutual funds"}}, {"type": "node", "id": 7158055669, "lat": 19.1347426, "lon": 72.8251642, "tags": {"amenity": "bank", "branch": "Four Bungalow, Andheri (W)", "brand": "Oriental Bank of Commerce"}}, {"type": "node", "id": 7229757870, "lat": 19.0581597, "lon": 72.8475504, "tags": {"amenity": "bank", "brand": "Bank of Maharashtra", "brand:wikidata": "Q2004304", "brand:wikipedia": "en:Bank of Maharashtra", "name": "Bank of Maharashtra"}}, {"type": "node", "id": 7425718017, "lat": 19.1403389, "lon": 72.8262041, "tags": {"amenity": "bank", "branch": "Lokhandwala Market", "brand": "ICICI Bank", "brand:wikidata": "Q1653258", "brand:wikipedia": "en:ICICI Bank", "level": "0", "name": "ICICI Bank", "short_name": "ICICI", "wheelchair": "no"}}, {"type": "node", "id": 7425718021, "lat": 19.1449676, "lon": 72.8233935, "tags": {"amenity": "bank", "brand": "Oriental Bank of Commerce", "brand:wikidata": "Q367008", "brand:wikipedia": "en:Oriental Bank of Commerce", "name": "Oriental Bank of Commerce"}}, {"type": "node", "id": 7425718022, "lat": 19.1422475, "lon": 72.8227432}, {"type": "node", "id": 7425718023, "lat": 19.1422763, "lon": 72.8228022}, {"type": "node", "id": 7425718024, "lat": 19.1424703, "lon": 72.8226985}, {"type": "node", "id": 7425718025, "lat": 19.1424415, "lon": 72.8226375}, {"type": "node", "id": 7425718026, "lat": 19.1467711, "lon": 72.8241513, "tags": {"amenity": "bank", "brand": "HDFC Bank", "brand:wikidata": "Q631047", "brand:wikipedia": "en:HDFC Bank", "name": "HDFC Bank"}}, {"type": "node", "id": 7425718030, "lat": 19.1472341, "lon": 72.8228859, "tags": {"amenity": "bank", "brand": "IndusInd Bank", "brand:wikidata": "Q2040323", "name": "IndusInd Bank"}}, {"type": "node", "id": 7484275077, "lat": 19.2552562, "lon": 72.864618, "tags": {"addr:city": "MUMBAI", "addr:postcode": "400068", "addr:street": "Anand Nagar Road", "amenity": "bank", "brand": "Bank of Baroda", "brand:wikidata": "Q2003797", "brand:wikipedia": "en:Bank of Baroda", "name": "Bank of Baroda", "opening_hours": "Mo-Fr 09:00-17:00"}}, {"type": "node", "id": 7626670561, "lat": 19.04195, "lon": 72.9222728, "tags": {"amenity": "bank", "atm": "yes", "brand": "State Bank of India", "brand:wikidata": "Q1340361", "brand:wikipedia": "en:State Bank of India", "drive_through": "no", "name": "State Bank of India"}}, {"type": "node", "id": 7842942530, "lat": 19.059488, "lon": 72.8290268, "tags": {"addr:street": "Perry Road", "amenity": "bank", "contact:phone": "02226430802", "name": "Citizen Credit Co-op Bank", "opening_hours": "Mo-Fr 9:15-13:00"}}, {"type": "node", "id": 8399715871, "lat": 19.2153382, "lon": 72.8252245, "tags": {"addr:city": "Mumbai", "addr:housenumber": "Road no 4,", "addr:postcode": "400067", "addr:street": "Jivdeep CHS, sector 5 Charkop,", "amenity": "bank", "atm": "yes", "name": "Dena Bank", "opening_hours": "Mo-Fr 09:00-17:00", "opening_hours:covid19": "off", "operator": "Government of India"}}, {"type": "node", "id": 8415013903, "lat": 19.0664038, "lon": 72.8478286}, {"type": "node", "id": 8415013904, "lat": 19.066319, "lon": 72.8479695}, {"type": "node", "id": 8415013905, "lat": 19.0663922, "lon": 72.8479597}, {"type": "node", "id": 8415135315, "lat": 19.0674198, "lon": 72.8479321}, {"type": "node", "id": 8415135316, "lat": 19.0673226, "lon": 72.8480469}, {"type": "node", "id": 8415142017, "lat": 19.0674218, "lon": 72.8480434}, {"type": "node", "id": 8415142018, "lat": 19.067324, "lon": 72.847939}, {"type": "node", "id": 8448096886, "lat": 19.0962481, "lon": 72.8655063, "tags": {"addr:city": "mumbai", "addr:postcode": "400099", "amenity": "bank", "brand": "State Bank of India", "brand:wikidata": "Q1340361", "name": "State Bank of India", "opening_hours": "Mo-Sa 10:00-04:00", "short_name": "SBI"}}, {"type": "node", "id": 8473218127, "lat": 19.0789855, "lon": 72.9094371, "tags": {"addr:city": "Mumbai", "addr:housenumber": "Shop No 3 & 4, Plot No 296, Jai Kisan Chs, Pant Nagar, Ghatkopar East,", "addr:postcode": "400077", "addr:street": "Janata Society Road", "amenity": "bank", "brand": "ICICI Bank", "brand:wikidata": "Q1653258", "brand:wikipedia": "en:ICICI Bank", "name": "ICICI Bank", "short_name": "ICICI"}}, {"type": "node", "id": 8981778718, "lat": 19.1263963, "lon": 72.8387941, "tags": {"addr:postcode": "400058", "amenity": "bank", "brand": "HDFC Bank", "brand:wikidata": "Q631047", "name": "HDFC Bank", "short_name": "HDFC"}}, {"type": "node", "id": 9042224334, "lat": 19.1659918, "lon": 72.9601413, "tags": {"amenity": "bank", "name": "ICICI"}}, {"type": "node", "id": 9047334658, "lat": 19.1727237, "lon": 72.9502404, "tags": {"amenity": "bank", "brand": "ICICI Bank", "name": "ICICI Bank"}}, {"type": "node", "id": 9115783841, "lat": 19.2236967, "lon": 72.8412507, "tags": {"amenity": "bank", "brand": "RBL Bank", "brand:wikidata": "Q13120398", "name": "RBL Bank"}}, {"type": "node", "id": 9118087831, "lat": 19.1287614, "lon": 72.8254672, "tags": {"amenity": "bank", "brand": "UCO Bank", "brand:wikidata": "Q2005310", "name": "UCO Bank"}}, {"type": "node", "id": 9118087861, "lat": 19.1295027, "lon": 72.8237765, "tags": {"amenity": "bank", "branch": "Versova", "brand": "State Bank of India", "brand:wikidata": "Q1340361", "name": "State Bank of India", "short_name": "SBI"}}, {"type": "node", "id": 9122423232, "lat": 19.1296329, "lon": 72.817868, "tags": {"amenity": "bank", "branch": "Versova", "brand": "Canara Bank"}}, {"type": "node", "id": 9124396662, "lat": 19.1313983, "lon": 72.8258666, "tags": {"amenity": "bank", "branch": "Andheri West", "brand": "IDFC First Bank", "brand:wikidata": "Q22031467", "name": "IDFC First Bank"}}, {"type": "node", "id": 9124396670, "lat": 19.1313095, "lon": 72.8258724, "tags": {"amenity": "bank", "brand": "IndusInd Bank", "brand:wikidata": "Q2040323", "name": "IndusInd Bank"}}, {"type": "node", "id": 9125877270, "lat": 19.1376115, "lon": 72.8254735, "tags": {"amenity": "bank", "brand": "Union Bank of India", "brand:wikidata": "Q2004078", "name": "Union Bank of India"}}, {"type": "node", "id": 9125877272, "lat": 19.1376954, "lon": 72.8254745, "tags": {"amenity": "bank", "brand": "Kotak Mahindra Bank", "brand:wikidata": "Q2040404", "name": "Kotak Mahindra Bank"}}, {"type": "node", "id": 9125877274, "lat": 19.1373751, "lon": 72.8254797, "tags": {"amenity": "bank", "branch": "Lokhandwala Complex", "brand": "Bank of Baroda", "brand:wikidata": "Q2003797", "name": "Bank of Baroda"}}, {"type": "node", "id": 9129138274, "lat": 19.0817351, "lon": 72.9075151, "tags": {"addr:city": "Mumbai", "addr:postcode": "400077", "addr:street": "Derasar Lane", "amenity": "bank", "name": "New India Co -op Bank"}}, {"type": "node", "id": 9129138276, "lat": 19.0809527, "lon": 72.9084542, "tags": {"addr:city": "Mumbai", "addr:housenumber": "161", "addr:postcode": "400077", "addr:street": "Ratilal Mehta Marg", "amenity": "bank", "name": "Arihant Co-op Bank"}}, {"type": "node", "id": 9132850202, "lat": 19.1279491, "lon": 72.8325622, "tags": {"amenity": "bank", "brand": "Apna Sahakari Bank Limited"}}, {"type": "node", "id": 9132850203, "lat": 19.1276017, "lon": 72.8325354, "tags": {"amenity": "bank", "branch": "Versova", "brand": "Bank of Baroda", "brand:wikidata": "Q2003797", "name": "Bank of Baroda", "wheelchair": "limited"}}, {"type": "node", "id": 9134213521, "lat": 19.0786964, "lon": 72.9095734, "tags": {"addr:city": "Mumbai", "addr:postcode": "400077", "addr:street": "vallabh baug ext.road", "amenity": "bank", "name": "Induslnd Bank"}}, {"type": "node", "id": 9134855264, "lat": 19.13171, "lon": 72.835117, "tags": {"amenity": "bank", "branch": "Veera Desai Road", "brand": "State Bank of India", "brand:wikidata": "Q1340361", "name": "State Bank of India", "short_name": "SBI", "wheelchair": "no"}}, {"type": "node", "id": 9137876886, "lat": 19.1162324, "lon": 72.8333607, "tags": {"amenity": "bank", "branch": "Juhu Gulmohar Road", "brand": "HDFC Bank", "brand:wikidata": "Q631047", "name": "HDFC Bank", "short_name": "HDFC"}}, {"type": "node", "id": 9137876891, "lat": 19.1162509, "lon": 72.8326257, "tags": {"amenity": "bank", "brand": "IDFC First Bank", "brand:wikidata": "Q22031467", "name": "IDFC First Bank"}}, {"type": "node", "id": 9137876892, "lat": 19.1159014, "lon": 72.8310596, "tags": {"amenity": "bank", "branch": "Vile Parle", "brand": "Axis Bank", "brand:wikidata": "Q2003549", "name": "Axis Bank"}}, {"type": "node", "id": 9139716434, "lat": 19.1407097, "lon": 72.8202515, "tags": {"amenity": "bank", "branch": "Oshiwara", "brand": "State Bank of India"}}, {"type": "node", "id": 9141480144, "lat": 19.1289263, "lon": 72.8263743, "tags": {"amenity": "bank", "brand": "Kotak Mahindra Bank", "brand:wikidata": "Q2040404", "name": "Kotak Mahindra Bank"}}, {"type": "node", "id": 9141480148, "lat": 19.1287473, "lon": 72.8268402, "tags": {"amenity": "bank", "branch": "Andheri West", "brand": "Karnataka Bank", "brand:wikidata": "Q2042632", "name": "Karnataka Bank"}}, {"type": "node", "id": 9800734068, "lat": 19.1692767, "lon": 72.9656211, "tags": {"amenity": "bank", "name": "Mumbai Bank - MDCC"}}, {"type": "node", "id": 9812187794, "lat": 19.2502845, "lon": 72.8480136, "tags": {"amenity": "bank", "name": "Kotak Mahindra"}}, {"type": "node", "id": 9841035971, "lat": 19.1295936, "lon": 72.8258611, "tags": {"amenity": "bank", "name": "Janakalyan Shahakari Bank"}}, {"type": "node", "id": 9841035972, "lat": 19.1299784, "lon": 72.8258836, "tags": {"amenity": "bank", "name": "Jana Small Fonance Bank"}}, {"type": "node", "id": 9852700818, "lat": 19.2238213, "lon": 72.8410716, "tags": {"amenity": "bank", "name": "Ratnakar Bank"}}, {"type": "node", "id": 9981895595, "lat": 19.2048192, "lon": 72.8434549, "tags": {"amenity": "bank", "name": "Sarasvat Bank"}}, {"type": "node", "id": 9981895596, "lat": 19.205805, "lon": 72.8426245, "tags": {"addr:city": "Mumbai", "addr:housenumber": "Rashmi heights", "addr:postcode": "400067", "addr:street": "Mahatma Gandhi Road", "amenity": "bank", "brand": "AU Small Finance Bank", "brand:wikidata": "Q48729722", "name": "AU Small Finance Bank"}}, {"type": "node", "id": 10050183817, "lat": 19.1602433, "lon": 72.8437829, "tags": {"amenity": "bank", "brand": "Indian Bank", "brand:wikidata": "Q2003789", "name": "Indian Bank", "name:en": "Indian Bank"}}, {"type": "node", "id": 10170584901, "lat": 19.2382196, "lon": 72.8527, "tags": {"amenity": "bank", "atm": "no", "brand": "State Bank of India", "brand:wikidata": "Q1340361", "drive_through": "no", "name": "State Bank of India-RACPC-Borivali", "short_name": "SBI"}}, {"type": "node", "id": 10170631375, "lat": 19.2438758, "lon": 72.851401, "tags": {"amenity": "bank", "atm": "yes", "branch": "Borivali", "brand": "Karnataka Bank", "brand:wikidata": "Q2042632", "drive_through": "no", "name": "Karnataka Bank"}}, {"type": "node", "id": 10170645868, "lat": 19.2449026, "lon": 72.8523637, "tags": {"amenity": "bank", "branch": "Mount Poisar", "brand": "Bank of Baroda", "brand:wikidata": "Q2003797", "name": "Bank of Baroda", "short_name": "BoB"}}, {"type": "node", "id": 10246294969, "lat": 19.2176662, "lon": 72.8285384, "tags": {"addr:city": "Mumbai", "addr:postcode": "400067", "addr:street": "RDP Road No 5", "amenity": "bank", "name": "Apna Bazar Bank"}}, {"type": "node", "id": 10275188524, "lat": 19.2542418, "lon": 72.8687186, "tags": {"amenity": "bank", "name": "bank"}}, {"type": "node", "id": 10280126583, "lat": 19.1724355, "lon": 72.9530767, "tags": {"amenity": "bank", "atm": "yes", "branch": "Mulund West", "brand": "State Bank of India", "brand:wikidata": "Q1340361", "name": "State Bank of India", "short_name": "SBI"}}, {"type": "node", "id": 10608361190, "lat": 19.0567539, "lon": 72.8338519, "tags": {"amenity": "bank", "name": "The Municipal Co-Op Bank", "operator": "The Municipal Co-Op Bank"}}, {"type": "node", "id": 10608367508, "lat": 19.060601, "lon": 72.8342194, "tags": {"amenity": "bank", "brand": "Indian Bank", "brand:wikidata": "Q2003789", "name": "Indian Bank"}}, {"type": "node", "id": 10608367509, "lat": 19.0615411, "lon": 72.8345509, "tags": {"amenity": "bank", "brand": "IDBI Bank", "brand:wikidata": "Q3633485", "name": "IDBI Bank", "short_name": "IDBI"}}, {"type": "node", "id": 10613956805, "lat": 19.2218903, "lon": 72.841801, "tags": {"addr:street": "Link Road", "amenity": "bank", "brand": "State Bank of India", "brand:wikidata": "Q1340361", "name": "State Bank of India", "name:en": "State Bank of India", "short_name": "SBI"}}, {"type": "node", "id": 10633836758, "lat": 19.1285008, "lon": 72.8684849, "tags": {"amenity": "bank"}}, {"type": "node", "id": 10648568364, "lat": 19.2044306, "lon": 72.8400615}, {"type": "node", "id": 10648568365, "lat": 19.204285, "lon": 72.8400548}, {"type": "node", "id": 10648568366, "lat": 19.2043065, "lon": 72.8398268}, {"type": "node", "id": 10648568367, "lat": 19.2044775, "lon": 72.8398496}, {"type": "node", "id": 10779234836, "lat": 19.0614334, "lon": 72.8640157, "tags": {"amenity": "bank", "atm": "yes", "brand": "Bank of Baroda", "brand:wikidata": "Q2003797", "name": "Bank of Baroda", "operator": "Bank of Baroda"}}, {"type": "node", "id": 10779234841, "lat": 19.0614588, "lon": 72.8614247, "tags": {"amenity": "bank", "atm": "yes", "brand": "Bank of India", "brand:wikidata": "Q2004439", "name": "Bank of India", "operator": "Bank of India"}}, {"type": "node", "id": 10779234842, "lat": 19.0612585, "lon": 72.8620791, "tags": {"amenity": "bank", "atm": "yes", "brand": "Kotak Mahindra Bank", "brand:wikidata": "Q2040404", "name": "Kotak Mahindra Bank", "operator": "Kotak Mahindra Bank"}}, {"type": "node", "id": 10779234845, "lat": 19.0599985, "lon": 72.8622253, "tags": {"amenity": "bank", "atm": "yes", "brand": "Punjab National Bank", "brand:wikidata": "Q2743499", "name": "Punjab National Bank", "operator": "Punjab National Bank"}}, {"type": "node", "id": 10779617872, "lat": 19.0875338, "lon": 72.8273706, "tags": {"amenity": "bank", "brand": "ICICI Bank", "brand:wikidata": "Q1653258", "name": "ICICI Bank", "short_name": "ICICI"}}, {"type": "node", "id": 10779633722, "lat": 19.0875962, "lon": 72.8271197, "tags": {"air_conditioning": "yes", "amenity": "bank", "atm": "yes", "drive_through": "no", "name": "Union Bank"}}, {"type": "node", "id": 11193066689, "lat": 19.1071043, "lon": 72.8639391, "tags": {"amenity": "bank", "name": "canera bank"}}, {"type": "node", "id": 11278792816, "lat": 19.0821332, "lon": 72.8856732, "tags": {"amenity": "bank", "branch": "RACPC", "brand": "State Bank of India", "brand:wikidata": "Q1340361", "name": "State Bank of India", "short_name": "SBI"}}, {"type": "node", "id": 11283018641, "lat": 19.0534718, "lon": 72.896198, "tags": {"amenity": "bank", "brand": "South Indian Bank", "brand:wikidata": "Q2044973", "name": "South Indian Bank"}}, {"type": "node", "id": 11283018643, "lat": 19.0535061, "lon": 72.8960644, "tags": {"amenity": "bank", "brand": "Jana Small Finance Bank", "brand:wikidata": "Q65122274", "name": "Jana Small Finance Bank"}}, {"type": "node", "id": 11283018645, "lat": 19.0536232, "lon": 72.8956128, "tags": {"amenity": "bank", "brand": "ICICI Bank", "brand:wikidata": "Q1653258", "name": "ICICI Bank", "short_name": "ICICI"}}, {"type": "node", "id": 11296361340, "lat": 19.0595383, "lon": 72.8289067, "tags": {"amenity": "bank", "brand": "RBL Bank", "brand:wikidata": "Q13120398", "name": "RBL Bank"}}, {"type": "node", "id": 11296361363, "lat": 19.0624737, "lon": 72.8282577, "tags": {"amenity": "bank", "brand": "Bank of India", "brand:wikidata": "Q2004439", "name": "Bank of India"}}, {"type": "node", "id": 11298645288, "lat": 19.0657065, "lon": 72.8299736, "tags": {"amenity": "bank", "brand": "Bank of Baroda", "brand:wikidata": "Q2003797", "name": "Bank of Baroda"}}, {"type": "node", "id": 11298645390, "lat": 19.0679736, "lon": 72.8333777, "tags": {"amenity": "bank", "brand": "ICICI Bank", "brand:wikidata": "Q1653258", "name": "ICICI Bank", "short_name": "ICICI"}}, {"type": "node", "id": 11298645404, "lat": 19.0675934, "lon": 72.8337555, "tags": {"amenity": "bank", "brand": "Punjab National Bank", "brand:wikidata": "Q2743499", "name": "Punjab National Bank"}}, {"type": "node", "id": 11298645409, "lat": 19.0650052, "lon": 72.8316247, "tags": {"amenity": "bank", "name": "Bharat Bank", "name:en": "Bharat Bank"}}, {"type": "node", "id": 11342048112, "lat": 19.0523353, "lon": 72.823928, "tags": {"amenity": "bank", "name": "DCB Bank"}}, {"type": "node", "id": 11364270984, "lat": 19.0614801, "lon": 72.8293046, "tags": {"amenity": "bank", "brand": "Yes Bank", "brand:wikidata": "Q2040394", "name": "Yes Bank"}}, {"type": "node", "id": 11372185953, "lat": 19.1009998, "lon": 72.8271228, "tags": {"amenity": "bank", "brand": "HSBC", "brand:wikidata": "Q190464", "name": "HSBC"}}, {"type": "node", "id": 11384515563, "lat": 19.0814391, "lon": 72.8346952, "tags": {"amenity": "bank", "brand": "HDFC Bank", "brand:wikidata": "Q631047", "name": "HDFC Bank", "short_name": "HDFC"}}, {"type": "node", "id": 11384515564, "lat": 19.0783784, "lon": 72.834574, "tags": {"amenity": "bank", "brand": "Kotak Mahindra Bank", "brand:wikidata": "Q2040404", "name": "Kotak Mahindra Bank"}}, {"type": "node", "id": 11400791211, "lat": 19.0819606, "lon": 72.8961277, "tags": {"amenity": "bank", "brand": "IDFC First Bank", "brand:wikidata": "Q22031467", "name": "IDFC First Bank"}}, {"type": "node", "id": 11400791213, "lat": 19.0819003, "lon": 72.8961246, "tags": {"amenity": "bank", "brand": "HDFC Bank", "brand:wikidata": "Q631047", "name": "HDFC Bank", "short_name": "HDFC"}}, {"type": "node", "id": 11400791215, "lat": 19.0818445, "lon": 72.8961198, "tags": {"amenity": "bank", "brand": "ICICI Bank", "brand:wikidata": "Q1653258", "name": "ICICI Bank", "short_name": "ICICI"}}, {"type": "node", "id": 11400791217, "lat": 19.0817891, "lon": 72.8961129, "tags": {"amenity": "bank", "brand": "Axis Bank", "brand:wikidata": "Q2003549", "name": "Axis Bank"}}, {"type": "node", "id": 11400791219, "lat": 19.081707, "lon": 72.8961027, "tags": {"amenity": "bank", "brand": "Punjab National Bank", "brand:wikidata": "Q2743499", "name": "Punjab National Bank"}}, {"type": "node", "id": 11400791221, "lat": 19.0816217, "lon": 72.896099, "tags": {"amenity": "bank", "brand": "Canara Bank", "brand:en": "Canara Bank", "brand:hi": "\u0915\u0947\u0928\u0930\u093e \u092c\u0948\u0902\u0915", "brand:kn": "\u0c95\u0cc6\u0ca8\u0cb0\u0cbe \u0cac\u0ccd\u0caf\u0cbe\u0c82\u0c95\u0ccd", "brand:pa": "\u0a15\u0a47\u0a28\u0a30\u0a3e \u0a2c\u0a48\u0a02\u0a15", "brand:pnb": "\u06a9\u06cc\u0646\u0631\u0627 \u0628\u06cc\u0646\u06a9", "brand:ur": "\u06a9\u06cc\u0646\u0631\u0627 \u0628\u06cc\u0646\u06a9", "brand:wikidata": "Q2003777", "name": "Canara Bank", "name:en": "Canara Bank", "name:hi": "\u0915\u0947\u0928\u0930\u093e \u092c\u0948\u0902\u0915", "name:kn": "\u0c95\u0cc6\u0ca8\u0cb0\u0cbe \u0cac\u0ccd\u0caf\u0cbe\u0c82\u0c95\u0ccd", "name:pa": "\u0a15\u0a47\u0a28\u0a30\u0a3e \u0a2c\u0a48\u0a02\u0a15", "name:pnb": "\u06a9\u06cc\u0646\u0631\u0627 \u0628\u06cc\u0646\u06a9", "name:ur": "\u06a9\u06cc\u0646\u0631\u0627 \u0628\u06cc\u0646\u06a9"}}, {"type": "node", "id": 11426624934, "lat": 19.08689, "lon": 72.8274307, "tags": {"amenity": "bank", "branch": "Juhu Tara Road", "brand": "RBL Bank", "brand:wikidata": "Q13120398", "name": "RBL Bank"}}, {"type": "node", "id": 11426709413, "lat": 19.0867646, "lon": 72.8271461, "tags": {"amenity": "bank", "branch": "Juhu Tara Road", "brand": "Yes Bank", "brand:wikidata": "Q2040394", "name": "Yes Bank"}}, {"type": "node", "id": 11426725043, "lat": 19.0909225, "lon": 72.8277526, "tags": {"amenity": "bank", "branch": "back", "brand": "HDFC Bank", "brand:wikidata": "Q631047", "name": "HDFC Bank", "short_name": "HDFC"}}, {"type": "node", "id": 11426739082, "lat": 19.087024, "lon": 72.827198, "tags": {"amenity": "bank", "branch": "Juhu Tara Road", "brand": "Kotak Mahindra Bank", "brand:wikidata": "Q2040404", "name": "Kotak Mahindra Bank"}}, {"type": "node", "id": 11426739557, "lat": 19.094799, "lon": 72.8283453, "tags": {"amenity": "bank", "name": "State Bank of India, Juhu Tara"}}, {"type": "node", "id": 11445789940, "lat": 19.1024353, "lon": 72.8855741, "tags": {"amenity": "bank", "brand": "Yes Bank", "brand:wikidata": "Q2040394", "name": "YES Bank"}}, {"type": "node", "id": 11445794599, "lat": 19.1025201, "lon": 72.8857349, "tags": {"amenity": "bank", "name": "IndusInd Bank"}}, {"type": "node", "id": 11445805534, "lat": 19.080614, "lon": 72.8888784, "tags": {"amenity": "bank", "name": "Unity Small Finance Bank"}}, {"type": "node", "id": 11449431524, "lat": 19.0653031, "lon": 72.8744544, "tags": {"amenity": "bank", "brand": "State Bank of India", "brand:wikidata": "Q1340361", "name": "State Bank of India", "short_name": "SBI"}}, {"type": "node", "id": 11449433247, "lat": 19.0758249, "lon": 72.876795, "tags": {"amenity": "bank", "brand": "AU Small Finance Bank", "brand:wikidata": "Q48729722", "name": "AU Small Finance Bank"}}, {"type": "node", "id": 11451942458, "lat": 19.0617232, "lon": 72.8597596, "tags": {"amenity": "bank", "branch": "BKC Branch", "brand": "Axis Bank", "brand:wikidata": "Q2003549", "name": "Axis Bank"}}, {"type": "node", "id": 11452002895, "lat": 19.055638, "lon": 72.8320918, "tags": {"amenity": "bank", "brand": "Bank of India", "brand:wikidata": "Q2004439", "name": "Bank of India"}}, {"type": "node", "id": 11452006995, "lat": 19.0751249, "lon": 72.8764071, "tags": {"amenity": "bank", "brand": "Canara Bank", "brand:en": "Canara Bank", "brand:hi": "\u0915\u0947\u0928\u0930\u093e \u092c\u0948\u0902\u0915", "brand:kn": "\u0c95\u0cc6\u0ca8\u0cb0\u0cbe \u0cac\u0ccd\u0caf\u0cbe\u0c82\u0c95\u0ccd", "brand:pa": "\u0a15\u0a47\u0a28\u0a30\u0a3e \u0a2c\u0a48\u0a02\u0a15", "brand:pnb": "\u06a9\u06cc\u0646\u0631\u0627 \u0628\u06cc\u0646\u06a9", "brand:ur": "\u06a9\u06cc\u0646\u0631\u0627 \u0628\u06cc\u0646\u06a9", "brand:wikidata": "Q2003777", "name": "Canara Bank", "name:en": "Canara Bank", "name:hi": "\u0915\u0947\u0928\u0930\u093e \u092c\u0948\u0902\u0915", "name:kn": "\u0c95\u0cc6\u0ca8\u0cb0\u0cbe \u0cac\u0ccd\u0caf\u0cbe\u0c82\u0c95\u0ccd", "name:pa": "\u0a15\u0a47\u0a28\u0a30\u0a3e \u0a2c\u0a48\u0a02\u0a15", "name:pnb": "\u06a9\u06cc\u0646\u0631\u0627 \u0628\u06cc\u0646\u06a9", "name:ur": "\u06a9\u06cc\u0646\u0631\u0627 \u0628\u06cc\u0646\u06a9"}}, {"type": "node", "id": 11452009155, "lat": 19.0758774, "lon": 72.8768148, "tags": {"amenity": "bank", "brand": "AU Small Finance Bank", "brand:wikidata": "Q48729722", "name": "AU Small Finance Bank"}}, {"type": "node", "id": 11452014929, "lat": 19.0845282, "lon": 72.8855689, "tags": {"amenity": "bank", "brand": "ICICI Bank", "brand:wikidata": "Q1653258", "name": "ICICI Bank", "short_name": "ICICI"}}, {"type": "node", "id": 11458866392, "lat": 19.0806664, "lon": 72.8887589, "tags": {"amenity": "bank", "brand": "Kotak Mahindra Bank", "brand:wikidata": "Q2040404", "check_date": "2023-12-27", "name": "Kotak Mahindra Bank"}}, {"type": "node", "id": 11464728718, "lat": 19.0800098, "lon": 72.8970076, "tags": {"amenity": "bank", "check_date": "2023-12-28", "name": "Saraswat Bank"}}, {"type": "node", "id": 11464742832, "lat": 19.1024687, "lon": 72.8859029, "tags": {"amenity": "bank", "brand": "ICICI Bank", "brand:wikidata": "Q1653258", "check_date": "2023-12-28", "name": "ICICI Bank", "short_name": "ICICI"}}, {"type": "node", "id": 11464742833, "lat": 19.1027989, "lon": 72.8861669, "tags": {"amenity": "bank", "brand": "Axis Bank", "brand:wikidata": "Q2003549", "check_date": "2023-12-28", "name": "Axis Bank"}}, {"type": "node", "id": 11464742834, "lat": 19.1028484, "lon": 72.8862483, "tags": {"amenity": "bank", "brand": "Bank of India", "brand:wikidata": "Q2004439", "check_date": "2023-12-28", "name": "Bank of India"}}, {"type": "node", "id": 11483837679, "lat": 19.0822157, "lon": 72.834635, "tags": {"amenity": "bank", "brand": "IDFC First Bank", "brand:wikidata": "Q22031467", "name": "IDFC First Bank"}}, {"type": "node", "id": 11483837683, "lat": 19.1151859, "lon": 72.8428581, "tags": {"amenity": "bank", "brand": "Yes Bank", "brand:wikidata": "Q2040394", "name": "Yes Bank"}}, {"type": "node", "id": 11607186143, "lat": 19.0624194, "lon": 72.8370675, "tags": {"amenity": "bank", "brand": "Indian Bank", "brand:wikidata": "Q2003789", "name": "Indian Bank"}}, {"type": "node", "id": 11613055040, "lat": 19.2089148, "lon": 72.8644359, "tags": {"addr:city": "Mumbai", "addr:district": "Mumbai", "addr:postcode": "400101", "addr:street": "digamber jain mandir road", "amenity": "bank", "atm": "yes", "branch": "kandivali east branch", "name": "ICICI bank kandivali (east )", "opening_hours": "Mo-Sa 08:00-18:00"}}, {"type": "node", "id": 11662659677, "lat": 19.1467938, "lon": 72.8236097, "tags": {"amenity": "bank", "name": "HDFC Bank"}}, {"type": "node", "id": 11662659678, "lat": 19.1469917, "lon": 72.8238512, "tags": {"amenity": "bank", "name": "Kotak Mahindra"}}, {"type": "node", "id": 11662659680, "lat": 19.1469042, "lon": 72.8234554, "tags": {"amenity": "bank", "name": "RBL Ratnakar Bank Ltd"}}, {"type": "node", "id": 11662659682, "lat": 19.1468532, "lon": 72.8240816, "tags": {"amenity": "bank", "name": "Yes Bank"}}, {"type": "node", "id": 11671765952, "lat": 19.071538, "lon": 72.8250012, "tags": {"amenity": "bank", "branch": "Pali Hill", "brand": "Canara Bank", "brand:en": "Canara Bank", "brand:hi": "\u0915\u0947\u0928\u0930\u093e \u092c\u0948\u0902\u0915", "brand:kn": "\u0c95\u0cc6\u0ca8\u0cb0\u0cbe \u0cac\u0ccd\u0caf\u0cbe\u0c82\u0c95\u0ccd", "brand:pa": "\u0a15\u0a47\u0a28\u0a30\u0a3e \u0a2c\u0a48\u0a02\u0a15", "brand:pnb": "\u06a9\u06cc\u0646\u0631\u0627 \u0628\u06cc\u0646\u06a9", "brand:ur": "\u06a9\u06cc\u0646\u0631\u0627 \u0628\u06cc\u0646\u06a9", "brand:wikidata": "Q2003777", "name": "Canara Bank", "name:en": "Canara Bank", "name:hi": "\u0915\u0947\u0928\u0930\u093e \u092c\u0948\u0902\u0915", "name:kn": "\u0c95\u0cc6\u0ca8\u0cb0\u0cbe \u0cac\u0ccd\u0caf\u0cbe\u0c82\u0c95\u0ccd", "name:pa": "\u0a15\u0a47\u0a28\u0a30\u0a3e \u0a2c\u0a48\u0a02\u0a15", "name:pnb": "\u06a9\u06cc\u0646\u0631\u0627 \u0628\u06cc\u0646\u06a9", "name:ur": "\u06a9\u06cc\u0646\u0631\u0627 \u0628\u06cc\u0646\u06a9"}}, {"type": "node", "id": 11693903879, "lat": 19.0702675, "lon": 72.8291283, "tags": {"amenity": "bank", "brand": "State Bank of India", "brand:wikidata": "Q1340361", "name": "State Bank of India", "short_name": "SBI"}}, {"type": "node", "id": 11728336005, "lat": 19.2058011, "lon": 72.8427029, "tags": {"addr:city": "Mumbai", "addr:housenumber": "SN 5 & 6, Ground Floor, Rashmi Heights", "addr:postcode": "400067", "addr:street": "Mahatma Gandhi Road", "amenity": "bank", "atm": "yes", "brand": "HDFC Bank", "contact:phone": "9426792001", "name": "HDFC Bank", "not:brand:wikidata": "Q631047", "opening_hours": "Mo-Fr 09:00-17:00"}}, {"type": "node", "id": 11893277047, "lat": 19.1050357, "lon": 72.8273119, "tags": {"amenity": "bank", "brand": "State Bank of India", "brand:wikidata": "Q1340361", "name": "State Bank of India", "short_name": "SBI"}}, {"type": "node", "id": 11895592386, "lat": 19.0556531, "lon": 72.8322112, "tags": {"amenity": "bank", "brand": "Axis Bank", "brand:wikidata": "Q2003549", "name": "Axis Bank"}}, {"type": "node", "id": 11901164005, "lat": 19.1044476, "lon": 72.8275487, "tags": {"amenity": "bank", "brand": "Standard Chartered", "brand:wikidata": "Q548278", "name": "Standard Chartered"}}, {"type": "node", "id": 11934060762, "lat": 19.0801543, "lon": 72.8510627, "tags": {"amenity": "bank", "brand": "ICICI Bank", "brand:wikidata": "Q1653258", "name": "ICICI Bank", "opening_hours": "Mo-Sa 09:30-15:00", "short_name": "ICICI"}}, {"type": "node", "id": 11934081455, "lat": 19.0802029, "lon": 72.8512104, "tags": {"amenity": "bank", "name": "NKGSB Bank"}}, {"type": "node", "id": 11934093375, "lat": 19.0803551, "lon": 72.8518588, "tags": {"amenity": "bank", "brand": "State Bank of India", "brand:wikidata": "Q1340361", "name": "State Bank of India", "short_name": "SBI"}}, {"type": "node", "id": 12192784742, "lat": 19.0649558, "lon": 72.8279776, "tags": {"amenity": "bank", "brand": "Axis Bank", "brand:wikidata": "Q2003549", "name": "Axis Bank"}}, {"type": "node", "id": 12192784769, "lat": 19.0612888, "lon": 72.8245196, "tags": {"amenity": "bank", "brand": "State Bank of India", "brand:wikidata": "Q1340361", "name": "State Bank of India", "short_name": "SBI"}}, {"type": "node", "id": 12290032514, "lat": 19.1466179, "lon": 72.8467749, "tags": {"amenity": "bank", "atm": "yes", "brand": "State Bank of India", "check_date": "2024-10-26", "drive_through": "yes", "internet_access": "wlan", "internet_access:fee": "no", "level": "0", "name": "State Bank of India", "payment:cash": "yes", "payment:credit_cards": "yes", "payment:debit_cards": "yes", "short_name": "SBI", "wheelchair": "no"}}, {"type": "node", "id": 12290056462, "lat": 19.1466369, "lon": 72.8464772, "tags": {"amenity": "bank", "atm": "yes", "brand": "HDFC Bank", "brand:wikidata": "Q631047", "check_date": "2024-10-26", "drive_through": "yes", "internet_access": "wlan", "internet_access:fee": "no", "level": "0", "name": "HDFC Bank", "payment:cash": "yes", "payment:credit_cards": "yes", "payment:debit_cards": "yes", "short_name": "HDFC", "wheelchair": "yes"}}, {"type": "node", "id": 12322916537, "lat": 19.1950628, "lon": 72.8258709, "tags": {"addr:city": "mumbai", "addr:postcode": "400095", "addr:street": "Malad Marve Road", "amenity": "bank", "branch": "Atm BANK", "brand": "Axis Bank", "brand:wikidata": "Q2003549", "drive_through": "yes", "name": "Axis Bank", "opening_hours": "Mo-Su 09:00-23:00", "wheelchair": "yes"}}, {"type": "node", "id": 12334053398, "lat": 19.0479902, "lon": 72.825201, "tags": {"amenity": "bank", "brand": "IDBI Bank", "brand:wikidata": "Q3633485", "name": "IDBI Bank", "short_name": "IDBI"}}, {"type": "node", "id": 12334116841, "lat": 19.0696756, "lon": 72.8339227, "tags": {"amenity": "bank", "name": "Saraswat Bank", "name:en": "Saraswat Bank"}}, {"type": "node", "id": 12334116885, "lat": 19.0728687, "lon": 72.8321001, "tags": {"amenity": "bank", "brand": "HDFC Bank", "brand:wikidata": "Q631047", "name": "HDFC Bank", "short_name": "HDFC"}}, {"type": "node", "id": 12346531490, "lat": 19.0555895, "lon": 72.8371547, "tags": {"amenity": "bank", "name": "Saraswat Bank"}}, {"type": "node", "id": 12389362159, "lat": 19.1768749, "lon": 72.9384391, "tags": {"amenity": "bank", "atm": "yes", "brand": "Bank of Maharashtra", "brand:wikidata": "Q2004304", "name": "Bank of Maharashtra"}}, {"type": "node", "id": 12400639960, "lat": 19.145355, "lon": 72.8231505, "tags": {"amenity": "bank", "atm": "yes", "brand": "ICICI Bank", "level": "0", "name": "ICICI Bank", "short_name": "ICICI"}}, {"type": "node", "id": 12411907722, "lat": 19.1445308, "lon": 72.8239475, "tags": {"amenity": "bank", "branch": "Lokhandwala", "brand": "Zoroastrian Bank", "level": "0", "name": "Zoroastrian Bank", "name:hi": "\u091c\u093c\u094b\u0930\u094b\u0910\u0938\u094d\u091f\u094d\u0930\u093f\u092f\u0928 \u092c\u0948\u0902\u0915", "operator": "The Zoroastrian Cooperative Bank Limited", "wheelchair": "no"}}, {"type": "node", "id": 12668986257, "lat": 19.057982, "lon": 72.8295439, "tags": {"amenity": "bank", "brand": "IndusInd Bank", "brand:wikidata": "Q2040323", "name": "IndusInd Bank"}}, {"type": "node", "id": 12696004074, "lat": 19.060408, "lon": 72.8520481, "tags": {"amenity": "bank", "brand": "Yes Bank", "brand:wikidata": "Q2040394", "name": "Yes Bank"}}, {"type": "node", "id": 12696004075, "lat": 19.0604788, "lon": 72.8518597, "tags": {"amenity": "bank", "branch": "Kalanagar Branch", "brand": "HDFC Bank", "brand:wikidata": "Q631047", "name": "HDFC Bank", "short_name": "HDFC"}}, {"type": "node", "id": 12696004077, "lat": 19.060539, "lon": 72.8516673, "tags": {"amenity": "bank", "branch": "Kalanagar Branch", "brand": "Axis Bank", "brand:wikidata": "Q2003549", "name": "Axis Bank"}}, {"type": "node", "id": 12706010775, "lat": 19.0592014, "lon": 72.832149, "tags": {"amenity": "bank", "brand": "AU Small Finance Bank", "brand:wikidata": "Q48729722", "name": "AU Small Finance Bank"}}, {"type": "node", "id": 12706010778, "lat": 19.0587668, "lon": 72.8329242, "tags": {"amenity": "bank", "name": "SVC Cooperative Bank", "name:en": "SVC Cooperative Bank"}}, {"type": "node", "id": 12731973452, "lat": 19.065927, "lon": 72.8343804, "tags": {"amenity": "bank", "brand": "State Bank of India", "brand:wikidata": "Q1340361", "name": "State Bank of India", "short_name": "SBI"}}, {"type": "node", "id": 12731973467, "lat": 19.0699567, "lon": 72.8383331, "tags": {"amenity": "bank", "brand": "CSB Bank", "brand:wikidata": "Q5053244", "name": "CSB Bank", "official_name": "Catholic Syrian Bank"}}, {"type": "node", "id": 12784254796, "lat": 19.0595597, "lon": 72.8476303, "tags": {"amenity": "bank", "brand": "Bank of Maharashtra", "brand:wikidata": "Q2004304", "name": "Bank of Maharashtra"}}, {"type": "node", "id": 12805979971, "lat": 19.0786108, "lon": 72.8342667, "tags": {"amenity": "bank", "name": "DCB Bank", "name:en": "DCB Bank"}}, {"type": "node", "id": 12809197800, "lat": 19.0558381, "lon": 72.8319577, "tags": {"amenity": "bank", "drive_through": "no", "name": "Citizen Credit Co-operative Bank", "name:en": "Citizen Credit Co-operative Bank"}}, {"type": "node", "id": 12842089420, "lat": 19.1051583, "lon": 72.8297145, "tags": {"amenity": "bank", "brand": "IndusInd Bank", "brand:wikidata": "Q2040323", "name": "IndusInd Bank"}}, {"type": "node", "id": 12843975056, "lat": 19.1814148, "lon": 72.9463462, "tags": {"amenity": "bank", "brand": "Bank of Baroda", "brand:wikidata": "Q2003797", "name": "Bank of Baroda"}}, {"type": "node", "id": 12855850013, "lat": 19.0622346, "lon": 72.8349569, "tags": {"amenity": "bank", "brand": "IDFC First Bank", "brand:wikidata": "Q22031467", "name": "IDFC First Bank"}}, {"type": "node", "id": 12871387490, "lat": 19.2225378, "lon": 72.853674, "tags": {"air_conditioning": "yes", "amenity": "bank", "atm": "yes", "branch": "Shimpoli", "brand": "ICICI Bank", "brand:wikidata": "Q1653258", "name": "ICICI Bank", "operator": "ICICI Bank", "short_name": "ICICI"}}, {"type": "node", "id": 12871387491, "lat": 19.2224087, "lon": 72.8536258, "tags": {"amenity": "bank", "name": "Saraswat Co-operative Bank"}}, {"type": "node", "id": 12871387492, "lat": 19.223071, "lon": 72.8535185, "tags": {"air_conditioning": "yes", "amenity": "bank", "brand": "HDFC Bank", "brand:wikidata": "Q631047", "name": "HDFC Bank", "short_name": "HDFC"}}, {"type": "node", "id": 12871400534, "lat": 19.2209469, "lon": 72.8522872, "tags": {"addr:city": "Mumbai", "addr:district": "Mumbai Suburban", "addr:housenumber": "1st and 2nd Floor, Agora Plaza", "addr:postcode": "400092", "addr:street": "Swami Vivekanand Road", "amenity": "bank", "atm": "yes", "brand": "State Bank of India", "brand:wikidata": "Q1340361", "name": "State Bank of India", "operator": "State Bank of India", "short_name": "SBI"}}, {"type": "node", "id": 12871400535, "lat": 19.216729, "lon": 72.8513508, "tags": {"amenity": "bank", "brand": "Oriental Bank of Commerce", "brand:wikidata": "Q367008", "name": "Oriental Bank of Commerce"}}, {"type": "node", "id": 12871400536, "lat": 19.222056, "lon": 72.8534846, "tags": {"amenity": "bank", "brand": "Kotak Mahindra Bank", "brand:wikidata": "Q2040404", "name": "Kotak Mahindra Bank"}}, {"type": "node", "id": 12887001654, "lat": 19.2196473, "lon": 72.8525049, "tags": {"amenity": "bank", "brand": "Federal Bank", "brand:wikidata": "Q2044983", "name": "Federal Bank"}}, {"type": "node", "id": 12888171945, "lat": 19.1718455, "lon": 72.9600975, "tags": {"amenity": "bank", "brand": "ICICI Bank", "brand:wikidata": "Q1653258", "name": "ICICI Bank", "short_name": "ICICI"}}, {"type": "node", "id": 12896373078, "lat": 19.0563728, "lon": 72.8341015, "tags": {"amenity": "bank", "name": "Cosmos Bank", "name:en": "Cosmos Bank", "opening_hours": "Mo-Sa 10:00-13:00,14:00-16:30; Sa[2,4] off"}}, {"type": "node", "id": 12920626771, "lat": 19.0649355, "lon": 72.8308501, "tags": {"amenity": "bank", "brand": "Canara Bank", "brand:en": "Canara Bank", "brand:hi": "\u0915\u0947\u0928\u0930\u093e \u092c\u0948\u0902\u0915", "brand:kn": "\u0c95\u0cc6\u0ca8\u0cb0\u0cbe \u0cac\u0ccd\u0caf\u0cbe\u0c82\u0c95\u0ccd", "brand:pa": "\u0a15\u0a47\u0a28\u0a30\u0a3e \u0a2c\u0a48\u0a02\u0a15", "brand:pnb": "\u06a9\u06cc\u0646\u0631\u0627 \u0628\u06cc\u0646\u06a9", "brand:ur": "\u06a9\u06cc\u0646\u0631\u0627 \u0628\u06cc\u0646\u06a9", "brand:wikidata": "Q2003777", "name": "Canara Bank", "name:en": "Canara Bank", "name:hi": "\u0915\u0947\u0928\u0930\u093e \u092c\u0948\u0902\u0915", "name:kn": "\u0c95\u0cc6\u0ca8\u0cb0\u0cbe \u0cac\u0ccd\u0caf\u0cbe\u0c82\u0c95\u0ccd", "name:pa": "\u0a15\u0a47\u0a28\u0a30\u0a3e \u0a2c\u0a48\u0a02\u0a15", "name:pnb": "\u06a9\u06cc\u0646\u0631\u0627 \u0628\u06cc\u0646\u06a9", "name:ur": "\u06a9\u06cc\u0646\u0631\u0627 \u0628\u06cc\u0646\u06a9"}}, {"type": "node", "id": 12921849720, "lat": 19.0587115, "lon": 72.8446508, "tags": {"amenity": "bank", "name": "Abhyudaya Bank"}}, {"type": "node", "id": 12921861852, "lat": 19.0587012, "lon": 72.8440925, "tags": {"amenity": "bank", "name": "Central Bank of India"}}, {"type": "node", "id": 12926034674, "lat": 19.0615623, "lon": 72.8352661, "tags": {"amenity": "bank", "brand": "Punjab National Bank", "brand:wikidata": "Q2743499", "name": "Punjab National Bank"}}, {"type": "node", "id": 12926034676, "lat": 19.0611581, "lon": 72.8352742, "tags": {"amenity": "bank", "brand": "Axis Bank", "brand:wikidata": "Q2003549", "name": "Axis Bank"}}, {"type": "node", "id": 12926034699, "lat": 19.0603737, "lon": 72.8351857, "tags": {"amenity": "bank", "brand": "South Indian Bank", "brand:wikidata": "Q2044973", "name": "South Indian Bank"}}, {"type": "node", "id": 12936465971, "lat": 19.083449, "lon": 72.8381869, "tags": {"amenity": "bank", "brand": "Canara Bank", "brand:en": "Canara Bank", "brand:hi": "\u0915\u0947\u0928\u0930\u093e \u092c\u0948\u0902\u0915", "brand:kn": "\u0c95\u0cc6\u0ca8\u0cb0\u0cbe \u0cac\u0ccd\u0caf\u0cbe\u0c82\u0c95\u0ccd", "brand:pa": "\u0a15\u0a47\u0a28\u0a30\u0a3e \u0a2c\u0a48\u0a02\u0a15", "brand:pnb": "\u06a9\u06cc\u0646\u0631\u0627 \u0628\u06cc\u0646\u06a9", "brand:ur": "\u06a9\u06cc\u0646\u0631\u0627 \u0628\u06cc\u0646\u06a9", "level": "0", "name": "Canara Bank", "name:en": "Canara Bank", "name:hi": "\u0915\u0947\u0928\u0930\u093e \u092c\u0948\u0902\u0915", "name:kn": "\u0c95\u0cc6\u0ca8\u0cb0\u0cbe \u0cac\u0ccd\u0caf\u0cbe\u0c82\u0c95\u0ccd", "name:pa": "\u0a15\u0a47\u0a28\u0a30\u0a3e \u0a2c\u0a48\u0a02\u0a15", "name:pnb": "\u06a9\u06cc\u0646\u0631\u0627 \u0628\u06cc\u0646\u06a9", "name:ur": "\u06a9\u06cc\u0646\u0631\u0627 \u0628\u06cc\u0646\u06a9", "wheelchair": "limited"}}, {"type": "node", "id": 12944612681, "lat": 19.0520398, "lon": 72.9002225, "tags": {"amenity": "bank", "name": "Saraswat Co-operative Bank Limited"}}, {"type": "node", "id": 12944717847, "lat": 19.054298, "lon": 72.9002745, "tags": {"amenity": "bank", "branch": "Diamond Garden Branch", "brand": "Punjab National Bank", "level": "0", "name": "Punjab National Bank", "wheelchair": "limited"}}, {"type": "node", "id": 12961126624, "lat": 19.0622446, "lon": 72.8364037, "tags": {"amenity": "bank", "atm": "yes", "bank": "yes", "brand": "Indian Overseas Bank", "brand:wikidata": "Q2003611", "name": "Indian Overseas Bank"}}, {"type": "node", "id": 13049436802, "lat": 19.0829579, "lon": 72.913582, "tags": {"addr:street": "90 Feet Road", "amenity": "bank"}}, {"type": "node", "id": 13058306157, "lat": 19.0592168, "lon": 72.8344773, "tags": {"amenity": "bank", "brand": "Bandhan Bank", "brand:wikidata": "Q19882235", "name": "Bandhan Bank"}}, {"type": "node", "id": 13064902215, "lat": 19.054936, "lon": 72.8278848, "tags": {"amenity": "bank", "brand": "State Bank of India", "brand:wikidata": "Q1340361", "name": "State Bank of India", "short_name": "SBI"}}, {"type": "node", "id": 13082483660, "lat": 19.1106859, "lon": 72.8297957, "tags": {"amenity": "bank", "brand": "Indian Bank", "brand:wikidata": "Q2003789", "name": "Indian Bank"}}, {"type": "node", "id": 13097872578, "lat": 19.0679626, "lon": 72.8380516, "tags": {"amenity": "bank", "brand": "Union Bank of India", "brand:wikidata": "Q2004078", "drive_through": "no", "name": "Union Bank of India"}}, {"type": "way", "id": 280020712, "nodes": [2841960937, 2841960938, 2841960939, 2841960940, 2841960941, 2841960942, 2841960943, 2841960944, 2841960945, 2841960946, 2841960937], "tags": {"amenity": "bank", "atm": "yes", "brand": "ICICI Bank", "brand:wikidata": "Q1653258", "brand:wikipedia": "en:ICICI Bank", "building": "yes", "building:levels": "6", "name": "ICICI Bank", "name:en": "ICICI Bank", "short_name": "ICICI", "website": "https://www.icicibank.com"}}, {"type": "way", "id": 352995711, "nodes": [3587806371, 3587806375, 3587806374, 3587806377, 3587806372, 3587806367, 3587806368, 3587806370, 3587806373, 3587806369, 3587806371], "tags": {"addr:city": "Mulund (West)", "addr:street": "Ramratan Trivedi Road", "amenity": "bank", "brand": "Canara Bank", "brand:pa": "\u0a15\u0a47\u0a28\u0a30\u0a3e \u0a2c\u0a48\u0a02\u0a15", "brand:ur": "\u06a9\u06cc\u0646\u0631\u0627 \u0628\u06cc\u0646\u06a9", "brand:wikidata": "Q2003777", "brand:wikipedia": "en:Canara Bank", "brand:wikipedia:pa": "\u0a15\u0a47\u0a28\u0a30\u0a3e \u0a2c\u0a48\u0a02\u0a15", "building": "yes", "name": "Canara Bank", "name:pa": "\u0a15\u0a47\u0a28\u0a30\u0a3e \u0a2c\u0a48\u0a02\u0a15", "name:ur": "\u06a9\u06cc\u0646\u0631\u0627 \u0628\u06cc\u0646\u06a9", "website": "https://www.canarabank.com/"}}, {"type": "way", "id": 353172662, "nodes": [3589383601, 3589383603, 3589383604, 3589383602, 3589383599, 3589383598, 3589383596, 3589383597, 3589383600, 3589383601], "tags": {"addr:city": "Mumbai", "amenity": "bank", "brand": "Bank of India", "brand:wikidata": "Q2004439", "brand:wikipedia": "en:Bank of India", "building": "office", "name": "Bank of India", "name:en": "Bank of India", "short_name": "BoI", "website": "https://www.bankofindia.co.in/"}}, {"type": "way", "id": 353198963, "nodes": [3589669912, 3589669960, 3589669953, 3589669910, 3589669912], "tags": {"addr:city": "Mumbai", "amenity": "bank", "brand": "Punjab National Bank", "brand:wikidata": "Q2743499", "brand:wikipedia": "en:Punjab National Bank", "building": "office", "name": "Punjab National Bank", "opening_hours": "Mo-Sa 09:00-15:00"}}, {"type": "way", "id": 353395885, "nodes": [3591774119, 3591774120, 3591774110, 3591774109, 3591774119], "tags": {"addr:city": "Mumbai", "addr:postcode": "400088", "addr:street": "V.N.Purav Marg", "addr:unit": "Opp Deonar Depot", "amenity": "bank", "branch": "Deonar Branch", "brand": "Central Bank of India", "brand:wikidata": "Q2007090", "building": "apartments", "name": "Central Bank of India", "opening_hours": "Mo-Fr 09:00-15:00"}}, {"type": "way", "id": 353424954, "nodes": [3592040175, 3592040178, 3592040191, 3592040189, 3592040175], "tags": {"amenity": "bank", "building": "yes", "name": "The Kurla Nagarik Sahakarl bank Limited"}}, {"type": "way", "id": 356258925, "nodes": [3617291227, 3617291231, 3617291239, 3617291238, 3617291254, 3617291271, 3617291273, 3617291267, 3617291268, 3617291278, 3617291279, 3617291275, 3617291276, 3617291272, 3617291266, 3617291261, 3617291258, 3617291257, 3617291247, 3617291246, 3617291243, 3617291236, 3617291229, 3617291230, 3617291242, 3617291237, 3617291228, 3617291227], "tags": {"addr:city": "Mumbai", "addr:postcode": "400051", "addr:street": "Bandra Kurla Complex Road", "amenity": "bank", "atm": "yes", "branch": "LHO Mumbai", "brand": "State Bank of India", "brand:wikidata": "Q1340361", "brand:wikipedia": "en:State Bank of India", "building": "office", "name": "State Bank of India", "short_name": "SBI"}}, {"type": "way", "id": 358888209, "nodes": [3637094664, 3637094661, 3637094654, 3637094651, 3637094639, 3637094642, 3637094636, 3637094633, 3637094599, 3637094607, 3637094624, 3637094629, 3637094664], "tags": {"amenity": "bank", "building": "yes", "name": "ICICI Bank ATM"}}, {"type": "way", "id": 793852027, "nodes": [7425718022, 7425718023, 7425718024, 7425718025, 7425718022], "tags": {"amenity": "bank", "brand": "State Bank of India", "brand:wikidata": "Q1340361", "brand:wikipedia": "en:State Bank of India", "building": "yes", "name": "State Bank of India"}}, {"type": "way", "id": 906170575, "nodes": [8415013903, 3589478400, 8415013904, 8415013905, 8415013903], "tags": {"addr:city": "Mumbai", "addr:postcode": "400051", "addr:street": "Sharada Devi Road", "amenity": "bank", "atm": "yes", "branch": "Bandra East Branch", "brand": "Bank of India", "brand:wikidata": "Q2004439", "brand:wikipedia": "en:Bank of India", "building": "yes", "drive_through": "no", "name": "Bank of India", "operator": "Bank of India"}}, {"type": "way", "id": 906179335, "nodes": [8415135316, 8415142017, 8415135315]}, {"type": "way", "id": 906179336, "nodes": [8415135315, 8415142018, 8415135316]}, {"type": "way", "id": 1143905698, "nodes": [10648568364, 10648568365, 10648568366, 10648568367, 10648568364], "tags": {"amenity": "bank", "brand": "State Bank of India", "brand:wikidata": "Q1340361", "building": "yes", "name": "State Bank of India", "short_name": "SBI"}}, {"type": "relation", "id": 12302813, "members": [{"type": "way", "ref": 906179335, "role": "outer"}, {"type": "way", "ref": 906179336, "role": "outer"}], "tags": {"amenity": "bank", "brand": "Bank of Maharashtra", "brand:wikidata": "Q2004304", "brand:wikipedia": "en:Bank of Maharashtra", "building": "yes", "name": "Bank of Maharashtra", "type": "multipolygon"}}]}